sitename,countryid,countrycode,itemrank,sweepid,latitude,uniqueident,infothree,ar,address,categoryurl,storeid,area,zipcode,infofive,openingtimes,infofour,categorypath,addresstype,bilanzgesellschaft,pagenumber,infotwo,overlayoperatordata,createdon,longitude,nf
Lidl,3410,FR,30,14001,48.9161,Lidl_FR_3410_14001,,6,225 rue de Stalingrad,https://spatial.virtualearth.net/REST/v1/data/717c7792c09a4aa4a53bb789c6bb94ee/Filialdaten-FR/Filialdaten-FR?spatialFilter=nearby(48.8569297790527342.3412001132965091000)&$filter=Adresstyp%20Eq%201&$top=1000&$format=json&key=AgC167Ojch2BCIEvqkvyrhl-yLiZLv6nCK_p0K1wyilYx4lcOnTjm6ud60JnqQAa,Lidl_FR_3410,BOBIGNY,93000,,lun-sam 08:30-20:00 dim 09:00-12:00,,FR,1,1,8,,,17/02/2015 18:29,2.42433,TRUE
Lidl,1605,FR,31,14001,48.93831,Lidl_FR_1605_14001,,26,39 boulevard Charles de Gaulle,https://spatial.virtualearth.net/REST/v1/data/717c7792c09a4aa4a53bb789c6bb94ee/Filialdaten-FR/Filialdaten-FR?spatialFilter=nearby(48.8569297790527342.3412001132965091000)&$filter=Adresstyp%20Eq%201&$top=1000&$format=json&key=AgC167Ojch2BCIEvqkvyrhl-yLiZLv6nCK_p0K1wyilYx4lcOnTjm6ud60JnqQAa,Lidl_FR_1605,VILLENEUVE LA GARENNE,92390,,lun-sam 8h30-20h,,FR,1,1,8,,,17/02/2015 18:29,2.32782,TRUE
Lidl,1058,FR,32,14001,48.77817,Lidl_FR_1058_14001,,19,132-162 rue Julian Grimau,https://spatial.virtualearth.net/REST/v1/data/717c7792c09a4aa4a53bb789c6bb94ee/Filialdaten-FR/Filialdaten-FR?spatialFilter=nearby(48.8569297790527342.3412001132965091000)&$filter=Adresstyp%20Eq%201&$top=1000&$format=json&key=AgC167Ojch2BCIEvqkvyrhl-yLiZLv6nCK_p0K1wyilYx4lcOnTjm6ud60JnqQAa,Lidl_FR_1058,VITRY SUR SEINE,94400,,lun-sam 08:30-20:30 dim 09:00-12:30,,FR,1,1,8,,,17/02/2015 18:29,2.37662,TRUE
Lidl,2864,FR,33,14001,48.80774,Lidl_FR_2864_14001,,10,34 rue Georges Clémenceau,https://spatial.virtualearth.net/REST/v1/data/717c7792c09a4aa4a53bb789c6bb94ee/Filialdaten-FR/Filialdaten-FR?spatialFilter=nearby(48.8569297790527342.3412001132965091000)&$filter=Adresstyp%20Eq%201&$top=1000&$format=json&key=AgC167Ojch2BCIEvqkvyrhl-yLiZLv6nCK_p0K1wyilYx4lcOnTjm6ud60JnqQAa,Lidl_FR_2864,MAISONS ALFORT,94700,,lun-sam 8h30-20h,,FR,1,1,8,,,17/02/2015 18:29,2.44401,TRUE
Lidl,1308,FR,4,14001,48.86212,Lidl_FR_1308_14001,,10,130 Rue du Chemin Vert,https://spatial.virtualearth.net/REST/v1/data/717c7792c09a4aa4a53bb789c6bb94ee/Filialdaten-FR/Filialdaten-FR?spatialFilter=nearby(48.8569297790527342.3412001132965091000)&$filter=Adresstyp%20Eq%201&$top=1000&$format=json&key=AgC167Ojch2BCIEvqkvyrhl-yLiZLv6nCK_p0K1wyilYx4lcOnTjm6ud60JnqQAa,Lidl_FR_1308,PARIS,75011,,lun-sam : 09:00 - 19:30,,FR,1,1,8,,,17/02/2015 18:29,2.38486,TRUE
Lidl,1063,FR,5,14001,48.8352,Lidl_FR_1063_14001,,10,24-28 rue Labrouste,https://spatial.virtualearth.net/REST/v1/data/717c7792c09a4aa4a53bb789c6bb94ee/Filialdaten-FR/Filialdaten-FR?spatialFilter=nearby(48.8569297790527342.3412001132965091000)&$filter=Adresstyp%20Eq%201&$top=1000&$format=json&key=AgC167Ojch2BCIEvqkvyrhl-yLiZLv6nCK_p0K1wyilYx4lcOnTjm6ud60JnqQAa,Lidl_FR_1063,PARIS,75015,,lun-sam : 08:00 - 21:00,,FR,1,1,8,,,17/02/2015 18:29,2.30885,TRUE
Lidl,3216,FR,6,14001,48.84275,Lidl_FR_3216_14001,,10,112 avenue de Daumesnil,https://spatial.virtualearth.net/REST/v1/data/717c7792c09a4aa4a53bb789c6bb94ee/Filialdaten-FR/Filialdaten-FR?spatialFilter=nearby(48.8569297790527342.3412001132965091000)&$filter=Adresstyp%20Eq%201&$top=1000&$format=json&key=AgC167Ojch2BCIEvqkvyrhl-yLiZLv6nCK_p0K1wyilYx4lcOnTjm6ud60JnqQAa,Lidl_FR_3216,PARIS,75012,,lun-sam : 08:00 - 21:00 Magasin équipé d'une boulangerie,,FR,1,1,8,bake,,17/02/2015 18:29,2.38458,TRUE
Lidl,3212,FR,8,14001,48.82431,Lidl_FR_3212_14001,,10,66 avenue d'Ivry,https://spatial.virtualearth.net/REST/v1/data/717c7792c09a4aa4a53bb789c6bb94ee/Filialdaten-FR/Filialdaten-FR?spatialFilter=nearby(48.8569297790527342.3412001132965091000)&$filter=Adresstyp%20Eq%201&$top=1000&$format=json&key=AgC167Ojch2BCIEvqkvyrhl-yLiZLv6nCK_p0K1wyilYx4lcOnTjm6ud60JnqQAa,Lidl_FR_3212,PARIS,75013,,lun-sam : 08:00 - 21:00,,FR,1,1,8,,,17/02/2015 18:29,2.36385,TRUE
Lidl,1087,FR,35,14001,48.78055,Lidl_FR_1087_14001,,19,Rue Rouget de Lisle,https://spatial.virtualearth.net/REST/v1/data/717c7792c09a4aa4a53bb789c6bb94ee/Filialdaten-FR/Filialdaten-FR?spatialFilter=nearby(48.8569297790527342.3412001132965091000)&$filter=Adresstyp%20Eq%201&$top=1000&$format=json&key=AgC167Ojch2BCIEvqkvyrhl-yLiZLv6nCK_p0K1wyilYx4lcOnTjm6ud60JnqQAa,Lidl_FR_1087,VITRY SUR SEINE,94400,,lun-sam 8h30-20h,,FR,1,1,8,,,17/02/2015 18:29,2.39467,TRUE
Lidl,3007,FR,37,14001,48.79083,Lidl_FR_3007_14001,,26,101 rue de la Porte de Trivaux,https://spatial.virtualearth.net/REST/v1/data/717c7792c09a4aa4a53bb789c6bb94ee/Filialdaten-FR/Filialdaten-FR?spatialFilter=nearby(48.8569297790527342.3412001132965091000)&$filter=Adresstyp%20Eq%201&$top=1000&$format=json&key=AgC167Ojch2BCIEvqkvyrhl-yLiZLv6nCK_p0K1wyilYx4lcOnTjm6ud60JnqQAa,Lidl_FR_3007,CLAMART,92140,,lun-ven 8h30-20h sam 8h30-19h,,FR,1,1,8,bake,,17/02/2015 18:29,2.2593,TRUE
Lidl,1085,FR,38,14001,48.93097,Lidl_FR_1085_14001,,26,85 rue des Mourinoux,https://spatial.virtualearth.net/REST/v1/data/717c7792c09a4aa4a53bb789c6bb94ee/Filialdaten-FR/Filialdaten-FR?spatialFilter=nearby(48.8569297790527342.3412001132965091000)&$filter=Adresstyp%20Eq%201&$top=1000&$format=json&key=AgC167Ojch2BCIEvqkvyrhl-yLiZLv6nCK_p0K1wyilYx4lcOnTjm6ud60JnqQAa,Lidl_FR_1085,ASNIERES SUR SEINE,92600,,lun-sam: 09h00:20h00,,FR,1,1,8,,,17/02/2015 18:29,2.27538,TRUE
Lidl,2871,FR,40,14001,48.91695,Lidl_FR_2871_14001,,26,344 rue Gabriel Péri,https://spatial.virtualearth.net/REST/v1/data/717c7792c09a4aa4a53bb789c6bb94ee/Filialdaten-FR/Filialdaten-FR?spatialFilter=nearby(48.8569297790527342.3412001132965091000)&$filter=Adresstyp%20Eq%201&$top=1000&$format=json&key=AgC167Ojch2BCIEvqkvyrhl-yLiZLv6nCK_p0K1wyilYx4lcOnTjm6ud60JnqQAa,Lidl_FR_2871,COLOMBES,92700,,lun-sam 9h-20h,,FR,1,1,8,,,17/02/2015 18:29,2.23541,TRUE
Lidl,2686,FR,41,14001,48.86609,Lidl_FR_2686_14001,,26,49 avenue Jean Jaurès,https://spatial.virtualearth.net/REST/v1/data/717c7792c09a4aa4a53bb789c6bb94ee/Filialdaten-FR/Filialdaten-FR?spatialFilter=nearby(48.8569297790527342.3412001132965091000)&$filter=Adresstyp%20Eq%201&$top=1000&$format=json&key=AgC167Ojch2BCIEvqkvyrhl-yLiZLv6nCK_p0K1wyilYx4lcOnTjm6ud60JnqQAa,Lidl_FR_2686,SURESNES,92150,,lun-sam 8h30-20h,,FR,1,1,8,,,17/02/2015 18:29,2.2022,TRUE
Lidl,3241,FR,43,14001,48.93357,Lidl_FR_3241_14001,,6,20 avenue jean Jaurès,https://spatial.virtualearth.net/REST/v1/data/717c7792c09a4aa4a53bb789c6bb94ee/Filialdaten-FR/Filialdaten-FR?spatialFilter=nearby(48.8569297790527342.3412001132965091000)&$filter=Adresstyp%20Eq%201&$top=1000&$format=json&key=AgC167Ojch2BCIEvqkvyrhl-yLiZLv6nCK_p0K1wyilYx4lcOnTjm6ud60JnqQAa,Lidl_FR_3241,LE BOURGET,93350,,lun-ven: 08:30-20:00,,FR,1,1,8,bake,,17/02/2015 18:29,2.42273,TRUE
Lidl,1612,FR,9,14001,48.89396,Lidl_FR_1612_14001,,10,193 bis rue Championnet,https://spatial.virtualearth.net/REST/v1/data/717c7792c09a4aa4a53bb789c6bb94ee/Filialdaten-FR/Filialdaten-FR?spatialFilter=nearby(48.8569297790527342.3412001132965091000)&$filter=Adresstyp%20Eq%201&$top=1000&$format=json&key=AgC167Ojch2BCIEvqkvyrhl-yLiZLv6nCK_p0K1wyilYx4lcOnTjm6ud60JnqQAa,Lidl_FR_1612,PARIS,75018,,lun-sam : 09:00 - 20:00,,FR,1,1,8,,,17/02/2015 18:29,2.3324,TRUE
Lidl,3214,FR,10,14001,48.87913,Lidl_FR_3214_14001,,10,72 rue Compans,https://spatial.virtualearth.net/REST/v1/data/717c7792c09a4aa4a53bb789c6bb94ee/Filialdaten-FR/Filialdaten-FR?spatialFilter=nearby(48.8569297790527342.3412001132965091000)&$filter=Adresstyp%20Eq%201&$top=1000&$format=json&key=AgC167Ojch2BCIEvqkvyrhl-yLiZLv6nCK_p0K1wyilYx4lcOnTjm6ud60JnqQAa,Lidl_FR_3214,PARIS,75019,,lun-sam : 08:00 - 21:00,,FR,1,1,8,,,17/02/2015 18:29,2.39251,TRUE
Lidl,2624,FR,13,14001,48.84136,Lidl_FR_2624_14001,,10,170 rue St Charles,https://spatial.virtualearth.net/REST/v1/data/717c7792c09a4aa4a53bb789c6bb94ee/Filialdaten-FR/Filialdaten-FR?spatialFilter=nearby(48.8569297790527342.3412001132965091000)&$filter=Adresstyp%20Eq%201&$top=1000&$format=json&key=AgC167Ojch2BCIEvqkvyrhl-yLiZLv6nCK_p0K1wyilYx4lcOnTjm6ud60JnqQAa,Lidl_FR_2624,PARIS,75015,,lun-sam : 09:00 - 20:00,,FR,1,1,8,,,17/02/2015 18:29,2.28085,TRUE
Lidl,1616,FR,26,14001,48.91262,Lidl_FR_1616_14001,,10,16 avenue de la République,https://spatial.virtualearth.net/REST/v1/data/717c7792c09a4aa4a53bb789c6bb94ee/Filialdaten-FR/Filialdaten-FR?spatialFilter=nearby(48.8569297790527342.3412001132965091000)&$filter=Adresstyp%20Eq%201&$top=1000&$format=json&key=AgC167Ojch2BCIEvqkvyrhl-yLiZLv6nCK_p0K1wyilYx4lcOnTjm6ud60JnqQAa,Lidl_FR_1616,AUBERVILLIERS,93300,,lun-sam : 08:30 - 20:00,,FR,1,1,8,,,17/02/2015 18:29,2.38303,TRUE
Lidl,1021,FR,28,14001,48.78163,Lidl_FR_1021_14001,,19,ZAC de L'Epi d'or - Rue de Chevilly,https://spatial.virtualearth.net/REST/v1/data/717c7792c09a4aa4a53bb789c6bb94ee/Filialdaten-FR/Filialdaten-FR?spatialFilter=nearby(48.8569297790527342.3412001132965091000)&$filter=Adresstyp%20Eq%201&$top=1000&$format=json&key=AgC167Ojch2BCIEvqkvyrhl-yLiZLv6nCK_p0K1wyilYx4lcOnTjm6ud60JnqQAa,Lidl_FR_1021,VILLEJUIF,94800,,lun-sam 08:30-20:00,,FR,1,1,8,bake,,17/02/2015 18:29,2.35498,TRUE
Lidl,2862,FR,20,14001,48.87543,Lidl_FR_2862_14001,,10,193 avenue Gambetta,https://spatial.virtualearth.net/REST/v1/data/717c7792c09a4aa4a53bb789c6bb94ee/Filialdaten-FR/Filialdaten-FR?spatialFilter=nearby(48.8569297790527342.3412001132965091000)&$filter=Adresstyp%20Eq%201&$top=1000&$format=json&key=AgC167Ojch2BCIEvqkvyrhl-yLiZLv6nCK_p0K1wyilYx4lcOnTjm6ud60JnqQAa,Lidl_FR_2862,BAGNOLET,93170,,lun-ven : 08:30 - 20:00 sam : 08:30 - 19:00,,FR,1,1,8,,,17/02/2015 18:29,2.42206,TRUE
Lidl,2309,FR,23,14001,48.81486,Lidl_FR_2309_14001,,26,1 Avenue de la Paix,https://spatial.virtualearth.net/REST/v1/data/717c7792c09a4aa4a53bb789c6bb94ee/Filialdaten-FR/Filialdaten-FR?spatialFilter=nearby(48.8569297790527342.3412001132965091000)&$filter=Adresstyp%20Eq%201&$top=1000&$format=json&key=AgC167Ojch2BCIEvqkvyrhl-yLiZLv6nCK_p0K1wyilYx4lcOnTjm6ud60JnqQAa,Lidl_FR_2309,CLAMART,92140,,lun-ven 8h30-20h00 sam 8h30-19h30,,FR,1,1,8,,,17/02/2015 18:29,2.27771,TRUE
Lidl,1090,FR,14,14001,48.89439,Lidl_FR_1090_14001,,10,247 rue de Crimée,https://spatial.virtualearth.net/REST/v1/data/717c7792c09a4aa4a53bb789c6bb94ee/Filialdaten-FR/Filialdaten-FR?spatialFilter=nearby(48.8569297790527342.3412001132965091000)&$filter=Adresstyp%20Eq%201&$top=1000&$format=json&key=AgC167Ojch2BCIEvqkvyrhl-yLiZLv6nCK_p0K1wyilYx4lcOnTjm6ud60JnqQAa,Lidl_FR_1090,PARIS,75019,,lun-sam : 09:00 - 21:00,,FR,1,1,8,,,17/02/2015 18:29,2.37249,TRUE
Lidl,1483,FR,17,14001,48.90409,Lidl_FR_1483_14001,,10,89 avenue Gabriel Péri,https://spatial.virtualearth.net/REST/v1/data/717c7792c09a4aa4a53bb789c6bb94ee/Filialdaten-FR/Filialdaten-FR?spatialFilter=nearby(48.8569297790527342.3412001132965091000)&$filter=Adresstyp%20Eq%201&$top=1000&$format=json&key=AgC167Ojch2BCIEvqkvyrhl-yLiZLv6nCK_p0K1wyilYx4lcOnTjm6ud60JnqQAa,Lidl_FR_1483,SAINT OUEN,93400,,lun-sam : 08:00 - 21:00,,FR,1,1,8,,,17/02/2015 18:29,2.33148,TRUE
Lidl,3249,FR,69,14001,48.9511,Lidl_FR_3249_14001,,6,rue Jean Duclos,https://spatial.virtualearth.net/REST/v1/data/717c7792c09a4aa4a53bb789c6bb94ee/Filialdaten-FR/Filialdaten-FR?spatialFilter=nearby(48.8569297790527342.3412001132965091000)&$filter=Adresstyp%20Eq%201&$top=1000&$format=json&key=AgC167Ojch2BCIEvqkvyrhl-yLiZLv6nCK_p0K1wyilYx4lcOnTjm6ud60JnqQAa,Lidl_FR_3249,AULNAY SOUS BOIS,93300,,lun-sam: 08:30-20:00,,FR,1,1,8,,,17/02/2015 18:29,2.48733,TRUE
Lidl,1869,FR,70,14001,48.75765,Lidl_FR_1869_14001,,19,Rue Albert Gary - ZAC de Bonneuil Sud,https://spatial.virtualearth.net/REST/v1/data/717c7792c09a4aa4a53bb789c6bb94ee/Filialdaten-FR/Filialdaten-FR?spatialFilter=nearby(48.8569297790527342.3412001132965091000)&$filter=Adresstyp%20Eq%201&$top=1000&$format=json&key=AgC167Ojch2BCIEvqkvyrhl-yLiZLv6nCK_p0K1wyilYx4lcOnTjm6ud60JnqQAa,Lidl_FR_1869,Bonneuil sur Marne,94380,,lun-sam 08:30-20:30,,FR,1,1,8,bake,,17/02/2015 18:29,2.48378,TRUE
Lidl,2417,FR,71,14001,48.98321,Lidl_FR_2417_14001,,6,34 rue Paul Vaillant Couturier,https://spatial.virtualearth.net/REST/v1/data/717c7792c09a4aa4a53bb789c6bb94ee/Filialdaten-FR/Filialdaten-FR?spatialFilter=nearby(48.8569297790527342.3412001132965091000)&$filter=Adresstyp%20Eq%201&$top=1000&$format=json&key=AgC167Ojch2BCIEvqkvyrhl-yLiZLv6nCK_p0K1wyilYx4lcOnTjm6ud60JnqQAa,Lidl_FR_2417,ARNOUVILLE LES GONESSE,95400,,lun-sam 8h30-20h,,FR,1,1,8,,,17/02/2015 18:29,2.4207,TRUE
Lidl,1072,FR,72,14001,48.80614,Lidl_FR_1072_14001,,19,Avenue du 8 Mai 1945 - RN 4,https://spatial.virtualearth.net/REST/v1/data/717c7792c09a4aa4a53bb789c6bb94ee/Filialdaten-FR/Filialdaten-FR?spatialFilter=nearby(48.8569297790527342.3412001132965091000)&$filter=Adresstyp%20Eq%201&$top=1000&$format=json&key=AgC167Ojch2BCIEvqkvyrhl-yLiZLv6nCK_p0K1wyilYx4lcOnTjm6ud60JnqQAa,Lidl_FR_1072,CHENNEVIERES SUR MARNE,94430,,lun-sam 8h30-20h,,FR,1,1,8,bake,,17/02/2015 18:29,2.53463,TRUE
Lidl,1849,FR,74,14001,48.73654,Lidl_FR_1849_14001,,19,164 Rue de Paris - 2 Rue Diderot,https://spatial.virtualearth.net/REST/v1/data/717c7792c09a4aa4a53bb789c6bb94ee/Filialdaten-FR/Filialdaten-FR?spatialFilter=nearby(48.8569297790527342.3412001132965091000)&$filter=Adresstyp%20Eq%201&$top=1000&$format=json&key=AgC167Ojch2BCIEvqkvyrhl-yLiZLv6nCK_p0K1wyilYx4lcOnTjm6ud60JnqQAa,Lidl_FR_1849,VILLENEUVE ST GEORGES,94190,,lun-sam 8h30-20h,,FR,1,1,8,bake,,17/02/2015 18:29,2.44712,TRUE
Lidl,2682,FR,86,14001,49.01923,Lidl_FR_2682_14001,,26,1 rue de la Tête Richard - Lieudit La Baronne,https://spatial.virtualearth.net/REST/v1/data/717c7792c09a4aa4a53bb789c6bb94ee/Filialdaten-FR/Filialdaten-FR?spatialFilter=nearby(48.8569297790527342.3412001132965091000)&$filter=Adresstyp%20Eq%201&$top=1000&$format=json&key=AgC167Ojch2BCIEvqkvyrhl-yLiZLv6nCK_p0K1wyilYx4lcOnTjm6ud60JnqQAa,Lidl_FR_2682,PISCOP,95350,,lun-sam 8h30-19h30,,FR,1,1,8,,,17/02/2015 18:29,2.35062,TRUE
Lidl,1047,FR,87,14001,48.70266,Lidl_FR_1047_14001,,26,Le Regard - Route Départementale n° 59,https://spatial.virtualearth.net/REST/v1/data/717c7792c09a4aa4a53bb789c6bb94ee/Filialdaten-FR/Filialdaten-FR?spatialFilter=nearby(48.8569297790527342.3412001132965091000)&$filter=Adresstyp%20Eq%201&$top=1000&$format=json&key=AgC167Ojch2BCIEvqkvyrhl-yLiZLv6nCK_p0K1wyilYx4lcOnTjm6ud60JnqQAa,Lidl_FR_1047,VILLEBON SUR YVETTE,91140,,lun-ven 9h-20h sam 9h-19h30,,FR,1,1,8,bake,,17/02/2015 18:29,2.25286,TRUE
Lidl,1050,FR,88,14001,48.69494,Lidl_FR_1050_14001,,26,32 rue Maurice,https://spatial.virtualearth.net/REST/v1/data/717c7792c09a4aa4a53bb789c6bb94ee/Filialdaten-FR/Filialdaten-FR?spatialFilter=nearby(48.8569297790527342.3412001132965091000)&$filter=Adresstyp%20Eq%201&$top=1000&$format=json&key=AgC167Ojch2BCIEvqkvyrhl-yLiZLv6nCK_p0K1wyilYx4lcOnTjm6ud60JnqQAa,Lidl_FR_1050,LONGJUMEAU,91160,,lun-sam: 08:30-20:00,,FR,1,1,8,,,17/02/2015 18:29,2.28673,TRUE
Lidl,1029,FR,65,14001,48.74788,Lidl_FR_1029_14001,,19,Rue Marie Laurencin,https://spatial.virtualearth.net/REST/v1/data/717c7792c09a4aa4a53bb789c6bb94ee/Filialdaten-FR/Filialdaten-FR?spatialFilter=nearby(48.8569297790527342.3412001132965091000)&$filter=Adresstyp%20Eq%201&$top=1000&$format=json&key=AgC167Ojch2BCIEvqkvyrhl-yLiZLv6nCK_p0K1wyilYx4lcOnTjm6ud60JnqQAa,Lidl_FR_1029,VILLENEUVE ST GEORGES,94190,,lun-sam 8h30-20h,,FR,1,1,8,,,17/02/2015 18:29,2.45623,TRUE
Lidl,1876,FR,67,14001,48.98808,Lidl_FR_1876_14001,,26,ZAC du Coeur de Ville - RD 125,https://spatial.virtualearth.net/REST/v1/data/717c7792c09a4aa4a53bb789c6bb94ee/Filialdaten-FR/Filialdaten-FR?spatialFilter=nearby(48.8569297790527342.3412001132965091000)&$filter=Adresstyp%20Eq%201&$top=1000&$format=json&key=AgC167Ojch2BCIEvqkvyrhl-yLiZLv6nCK_p0K1wyilYx4lcOnTjm6ud60JnqQAa,Lidl_FR_1876,SARCELLES,95200,,lun-sam 8h30-20h dim 9h-12h,,FR,1,1,8,bake,,17/02/2015 18:29,2.37807,TRUE
Lidl,2875,FR,68,14001,48.95575,Lidl_FR_2875_14001,,26,ZA Les Bois Rochefort,https://spatial.virtualearth.net/REST/v1/data/717c7792c09a4aa4a53bb789c6bb94ee/Filialdaten-FR/Filialdaten-FR?spatialFilter=nearby(48.8569297790527342.3412001132965091000)&$filter=Adresstyp%20Eq%201&$top=1000&$format=json&key=AgC167Ojch2BCIEvqkvyrhl-yLiZLv6nCK_p0K1wyilYx4lcOnTjm6ud60JnqQAa,Lidl_FR_2875,CORMEILLES EN PARISIS,95240,,lun-sam 8h30-20h,,FR,1,1,8,,,17/02/2015 18:29,2.20478,TRUE
Lidl,1609,FR,49,14001,48.76518,Lidl_FR_1609_14001,,26,149 Rue Auguste Renoir,https://spatial.virtualearth.net/REST/v1/data/717c7792c09a4aa4a53bb789c6bb94ee/Filialdaten-FR/Filialdaten-FR?spatialFilter=nearby(48.8569297790527342.3412001132965091000)&$filter=Adresstyp%20Eq%201&$top=1000&$format=json&key=AgC167Ojch2BCIEvqkvyrhl-yLiZLv6nCK_p0K1wyilYx4lcOnTjm6ud60JnqQAa,Lidl_FR_1609,CHATENAY MALABRY,92290,,lun-sam:08:30-20:00,,FR,1,1,8,,,17/02/2015 18:29,2.26485,TRUE
Lidl,2697,FR,50,14001,48.95866,Lidl_FR_2697_14001,,26,70 route d'Argenteuil,https://spatial.virtualearth.net/REST/v1/data/717c7792c09a4aa4a53bb789c6bb94ee/Filialdaten-FR/Filialdaten-FR?spatialFilter=nearby(48.8569297790527342.3412001132965091000)&$filter=Adresstyp%20Eq%201&$top=1000&$format=json&key=AgC167Ojch2BCIEvqkvyrhl-yLiZLv6nCK_p0K1wyilYx4lcOnTjm6ud60JnqQAa,Lidl_FR_2697,EPINAY,93800,,lun-sam 8h30-19h30,,FR,1,1,8,,,17/02/2015 18:29,2.28941,TRUE
Lidl,1315,FR,52,14001,48.96638,Lidl_FR_1315_14001,,26,58-60 bd Jean Mermoz,https://spatial.virtualearth.net/REST/v1/data/717c7792c09a4aa4a53bb789c6bb94ee/Filialdaten-FR/Filialdaten-FR?spatialFilter=nearby(48.8569297790527342.3412001132965091000)&$filter=Adresstyp%20Eq%201&$top=1000&$format=json&key=AgC167Ojch2BCIEvqkvyrhl-yLiZLv6nCK_p0K1wyilYx4lcOnTjm6ud60JnqQAa,Lidl_FR_1315,PIERREFITTE,93380,,lun-sam 8h30-19h30,,FR,1,1,8,,,17/02/2015 18:29,2.36445,TRUE
Lidl,3245,FR,45,14001,48.84852,Lidl_FR_3245_14001,,6,4 rue Roger Salengro,https://spatial.virtualearth.net/REST/v1/data/717c7792c09a4aa4a53bb789c6bb94ee/Filialdaten-FR/Filialdaten-FR?spatialFilter=nearby(48.8569297790527342.3412001132965091000)&$filter=Adresstyp%20Eq%201&$top=1000&$format=json&key=AgC167Ojch2BCIEvqkvyrhl-yLiZLv6nCK_p0K1wyilYx4lcOnTjm6ud60JnqQAa,Lidl_FR_3245,FONTENAY SOUS BOUS,,,lun-sam 08:30-20:00 dim 09:00-12:00,,FR,1,1,8,bake,,17/02/2015 18:29,2.48791,TRUE
Lidl,3201,FR,47,14001,48.79553,Lidl_FR_3201_14001,,10,5 avenue du Maréchal de Lattre de Tassigny,https://spatial.virtualearth.net/REST/v1/data/717c7792c09a4aa4a53bb789c6bb94ee/Filialdaten-FR/Filialdaten-FR?spatialFilter=nearby(48.8569297790527342.3412001132965091000)&$filter=Adresstyp%20Eq%201&$top=1000&$format=json&key=AgC167Ojch2BCIEvqkvyrhl-yLiZLv6nCK_p0K1wyilYx4lcOnTjm6ud60JnqQAa,Lidl_FR_3201,CRETEIL,94000,,lun-sam 08h30-20h,,FR,1,1,8,,,17/02/2015 18:29,2.45857,TRUE
Lidl,3009,FR,60,14001,48.87335,Lidl_FR_3009_14001,,6,17 avenue Robert Schuman,https://spatial.virtualearth.net/REST/v1/data/717c7792c09a4aa4a53bb789c6bb94ee/Filialdaten-FR/Filialdaten-FR?spatialFilter=nearby(48.8569297790527342.3412001132965091000)&$filter=Adresstyp%20Eq%201&$top=1000&$format=json&key=AgC167Ojch2BCIEvqkvyrhl-yLiZLv6nCK_p0K1wyilYx4lcOnTjm6ud60JnqQAa,Lidl_FR_3009,NEUILLY SUR MARNE,93330,,lun-sam : 08:30-20:00 dim: 09:00-12:00,,FR,1,1,8,bake,,17/02/2015 18:29,2.53054,TRUE
Lidl,1003,FR,62,14001,48.72992,Lidl_FR_1003_14001,,26,ZAC du Moulin - Avenue du Bel Air,https://spatial.virtualearth.net/REST/v1/data/717c7792c09a4aa4a53bb789c6bb94ee/Filialdaten-FR/Filialdaten-FR?spatialFilter=nearby(48.8569297790527342.3412001132965091000)&$filter=Adresstyp%20Eq%201&$top=1000&$format=json&key=AgC167Ojch2BCIEvqkvyrhl-yLiZLv6nCK_p0K1wyilYx4lcOnTjm6ud60JnqQAa,Lidl_FR_1003,MASSY,91300,,lun-ven 9h-19h30 sam 9h-19h,,FR,1,1,8,,,17/02/2015 18:29,2.30209,TRUE
Lidl,3159,FR,55,14001,48.96204,Lidl_FR_3159_14001,,6,3 rue Marcel Cerdan,https://spatial.virtualearth.net/REST/v1/data/717c7792c09a4aa4a53bb789c6bb94ee/Filialdaten-FR/Filialdaten-FR?spatialFilter=nearby(48.8569297790527342.3412001132965091000)&$filter=Adresstyp%20Eq%201&$top=1000&$format=json&key=AgC167Ojch2BCIEvqkvyrhl-yLiZLv6nCK_p0K1wyilYx4lcOnTjm6ud60JnqQAa,Lidl_FR_3159,GARGES LES GONESSE,95140,,lun-sam 08:30-20:00 dim 09:00-12:00,,FR,1,1,8,bake,,17/02/2015 18:29,2.40258,TRUE
Lidl,673,FR,57,14001,48.96645,Lidl_FR_673_14001,,26,10 Boulevard Pasteur,https://spatial.virtualearth.net/REST/v1/data/717c7792c09a4aa4a53bb789c6bb94ee/Filialdaten-FR/Filialdaten-FR?spatialFilter=nearby(48.8569297790527342.3412001132965091000)&$filter=Adresstyp%20Eq%201&$top=1000&$format=json&key=AgC167Ojch2BCIEvqkvyrhl-yLiZLv6nCK_p0K1wyilYx4lcOnTjm6ud60JnqQAa,Lidl_FR_673,ST GRATIEN,95210,,lun-sam 8h30-20h,,FR,1,1,8,bake,,17/02/2015 18:29,2.28209,TRUE
Lidl,1018,FR,81,14001,48.70502,Lidl_FR_1018_14001,,26,57 Avenue Mazarin,https://spatial.virtualearth.net/REST/v1/data/717c7792c09a4aa4a53bb789c6bb94ee/Filialdaten-FR/Filialdaten-FR?spatialFilter=nearby(48.8569297790527342.3412001132965091000)&$filter=Adresstyp%20Eq%201&$top=1000&$format=json&key=AgC167Ojch2BCIEvqkvyrhl-yLiZLv6nCK_p0K1wyilYx4lcOnTjm6ud60JnqQAa,Lidl_FR_1018,CHILLY MAZARIN,91380,,lun-ven 9h-19h30 sam 9h-19h,,FR,1,1,8,bake,,17/02/2015 18:29,2.31371,TRUE
Lidl,3151,FR,84,14001,48.90624,Lidl_FR_3151_14001,,26,11 bis avenue Gabriel Péri,https://spatial.virtualearth.net/REST/v1/data/717c7792c09a4aa4a53bb789c6bb94ee/Filialdaten-FR/Filialdaten-FR?spatialFilter=nearby(48.8569297790527342.3412001132965091000)&$filter=Adresstyp%20Eq%201&$top=1000&$format=json&key=AgC167Ojch2BCIEvqkvyrhl-yLiZLv6nCK_p0K1wyilYx4lcOnTjm6ud60JnqQAa,Lidl_FR_3151,MONTESSON,78360,,lun-sam 8h30-20h,,FR,1,1,8,bake,,17/02/2015 18:29,2.11547,TRUE
Lidl,1081,FR,77,14001,48.99777,Lidl_FR_1081_14001,,26,ZAC de la Croix Rambourg,https://spatial.virtualearth.net/REST/v1/data/717c7792c09a4aa4a53bb789c6bb94ee/Filialdaten-FR/Filialdaten-FR?spatialFilter=nearby(48.8569297790527342.3412001132965091000)&$filter=Adresstyp%20Eq%201&$top=1000&$format=json&key=AgC167Ojch2BCIEvqkvyrhl-yLiZLv6nCK_p0K1wyilYx4lcOnTjm6ud60JnqQAa,Lidl_FR_1081,EAUBONNE,95600,,lun-sam 8h30-19h30,,FR,1,1,8,bake,,17/02/2015 18:29,2.26913,TRUE
Lidl,1045,FR,125,14001,48.61614,Lidl_FR_1045_14001,,19,ZAC du Trou Grillon,https://spatial.virtualearth.net/REST/v1/data/717c7792c09a4aa4a53bb789c6bb94ee/Filialdaten-FR/Filialdaten-FR?spatialFilter=nearby(48.8569297790527342.3412001132965091000)&$filter=Adresstyp%20Eq%201&$top=1000&$format=json&key=AgC167Ojch2BCIEvqkvyrhl-yLiZLv6nCK_p0K1wyilYx4lcOnTjm6ud60JnqQAa,Lidl_FR_1045,SAINT PIERRE DU PERRAY,91280,,lun-sam 8h30-20h,,FR,1,1,8,,,17/02/2015 18:29,2.50603,TRUE
Lidl,2314,FR,126,14001,48.59986,Lidl_FR_2314_14001,,10,18-20 Route de Limours/ 11 route de la Roche,https://spatial.virtualearth.net/REST/v1/data/717c7792c09a4aa4a53bb789c6bb94ee/Filialdaten-FR/Filialdaten-FR?spatialFilter=nearby(48.8569297790527342.3412001132965091000)&$filter=Adresstyp%20Eq%201&$top=1000&$format=json&key=AgC167Ojch2BCIEvqkvyrhl-yLiZLv6nCK_p0K1wyilYx4lcOnTjm6ud60JnqQAa,Lidl_FR_2314,ARPAJON,91290,,lun-ven : 09:00 - 20:00 sam : 09:00 - 19:30,,FR,1,1,8,,,17/02/2015 18:29,2.24104,TRUE
Lidl,2868,FR,127,14001,48.58909,Lidl_FR_2868_14001,,10,2 avenue de la Maison Neuve,https://spatial.virtualearth.net/REST/v1/data/717c7792c09a4aa4a53bb789c6bb94ee/Filialdaten-FR/Filialdaten-FR?spatialFilter=nearby(48.8569297790527342.3412001132965091000)&$filter=Adresstyp%20Eq%201&$top=1000&$format=json&key=AgC167Ojch2BCIEvqkvyrhl-yLiZLv6nCK_p0K1wyilYx4lcOnTjm6ud60JnqQAa,Lidl_FR_2868,BRETIGNY SUR ORGE,91220,,lun-ven : 09:00 - 20:00 sam : 09:00 - 19:30,,FR,1,1,8,,,17/02/2015 18:29,2.302,TRUE
Lidl,1362,FR,128,14001,49.09758,Lidl_FR_1362_14001,,6,7 Rue de la Ferme St Ladre,https://spatial.virtualearth.net/REST/v1/data/717c7792c09a4aa4a53bb789c6bb94ee/Filialdaten-FR/Filialdaten-FR?spatialFilter=nearby(48.8569297790527342.3412001132965091000)&$filter=Adresstyp%20Eq%201&$top=1000&$format=json&key=AgC167Ojch2BCIEvqkvyrhl-yLiZLv6nCK_p0K1wyilYx4lcOnTjm6ud60JnqQAa,Lidl_FR_1362,FOSSES,95470,,lun-sam 8h30-19h30,,FR,1,1,8,,,17/02/2015 18:29,2.52896,TRUE
Lidl,3142,FR,129,14001,48.85642,Lidl_FR_3142_14001,,19,ZAC du Chêne St Fiacre,https://spatial.virtualearth.net/REST/v1/data/717c7792c09a4aa4a53bb789c6bb94ee/Filialdaten-FR/Filialdaten-FR?spatialFilter=nearby(48.8569297790527342.3412001132965091000)&$filter=Adresstyp%20Eq%201&$top=1000&$format=json&key=AgC167Ojch2BCIEvqkvyrhl-yLiZLv6nCK_p0K1wyilYx4lcOnTjm6ud60JnqQAa,Lidl_FR_3142,CHANTELOUP EN BRIE,77600,,lun-sam 8h30-20h,,FR,1,1,8,bake,,17/02/2015 18:29,2.75328,TRUE
Lidl,3155,FR,90,14001,48.95716,Lidl_FR_3155_14001,,6,7 allée Breguet,https://spatial.virtualearth.net/REST/v1/data/717c7792c09a4aa4a53bb789c6bb94ee/Filialdaten-FR/Filialdaten-FR?spatialFilter=nearby(48.8569297790527342.3412001132965091000)&$filter=Adresstyp%20Eq%201&$top=1000&$format=json&key=AgC167Ojch2BCIEvqkvyrhl-yLiZLv6nCK_p0K1wyilYx4lcOnTjm6ud60JnqQAa,Lidl_FR_3155,VILLEPINTE,93420,,lun-sam: 08:30-20:00 dimanche: 09:00-12:00,,FR,1,1,8,,,17/02/2015 18:29,2.56123,TRUE
Lidl,642,FR,91,14001,49.00188,Lidl_FR_642_14001,,26,Rue René Coty,https://spatial.virtualearth.net/REST/v1/data/717c7792c09a4aa4a53bb789c6bb94ee/Filialdaten-FR/Filialdaten-FR?spatialFilter=nearby(48.8569297790527342.3412001132965091000)&$filter=Adresstyp%20Eq%201&$top=1000&$format=json&key=AgC167Ojch2BCIEvqkvyrhl-yLiZLv6nCK_p0K1wyilYx4lcOnTjm6ud60JnqQAa,Lidl_FR_642,HERBLAY,95220,,lun-sam 8h30-20h,,FR,1,1,8,,,17/02/2015 18:29,2.18619,TRUE
Lidl,2406,FR,92,14001,48.85188,Lidl_FR_2406_14001,,19,Rue des Deux Parcs,https://spatial.virtualearth.net/REST/v1/data/717c7792c09a4aa4a53bb789c6bb94ee/Filialdaten-FR/Filialdaten-FR?spatialFilter=nearby(48.8569297790527342.3412001132965091000)&$filter=Adresstyp%20Eq%201&$top=1000&$format=json&key=AgC167Ojch2BCIEvqkvyrhl-yLiZLv6nCK_p0K1wyilYx4lcOnTjm6ud60JnqQAa,Lidl_FR_2406,CHAMPS SUR MARNE,77420,,lun-sam 8h30-20h,,FR,1,1,8,bake,,17/02/2015 18:29,2.61359,TRUE
Lidl,2635,FR,93,14001,48.90027,Lidl_FR_2635_14001,,26,6 rue Priolet - 1 bis rue Stéphane Mony,https://spatial.virtualearth.net/REST/v1/data/717c7792c09a4aa4a53bb789c6bb94ee/Filialdaten-FR/Filialdaten-FR?spatialFilter=nearby(48.8569297790527342.3412001132965091000)&$filter=Adresstyp%20Eq%201&$top=1000&$format=json&key=AgC167Ojch2BCIEvqkvyrhl-yLiZLv6nCK_p0K1wyilYx4lcOnTjm6ud60JnqQAa,Lidl_FR_2635,ST GERMAIN EN LAYE,78100,,lun-ven 8h30-20h sam 8h30-19h,,FR,1,1,8,,,17/02/2015 18:29,2.0741,TRUE
Lidl,1320,FR,94,14001,48.77851,Lidl_FR_1320_14001,,19,Rue des  Chardonnerêts,https://spatial.virtualearth.net/REST/v1/data/717c7792c09a4aa4a53bb789c6bb94ee/Filialdaten-FR/Filialdaten-FR?spatialFilter=nearby(48.8569297790527342.3412001132965091000)&$filter=Adresstyp%20Eq%201&$top=1000&$format=json&key=AgC167Ojch2BCIEvqkvyrhl-yLiZLv6nCK_p0K1wyilYx4lcOnTjm6ud60JnqQAa,Lidl_FR_1320,PONTAULT COMBAULT,77340,,lun-sam 8h30-20h,,FR,1,1,8,bake,,17/02/2015 18:29,2.58887,TRUE
Lidl,1964,FR,100,14001,48.90466,Lidl_FR_1964_14001,,26,Route de Mantes / rue Camille Blanc,https://spatial.virtualearth.net/REST/v1/data/717c7792c09a4aa4a53bb789c6bb94ee/Filialdaten-FR/Filialdaten-FR?spatialFilter=nearby(48.8569297790527342.3412001132965091000)&$filter=Adresstyp%20Eq%201&$top=1000&$format=json&key=AgC167Ojch2BCIEvqkvyrhl-yLiZLv6nCK_p0K1wyilYx4lcOnTjm6ud60JnqQAa,Lidl_FR_1964,CHAMBOURCY,78240,,lun-ven 8h30-19h30 sam 8h30-19h,,FR,1,1,8,,,17/02/2015 18:29,2.05176,TRUE
Lidl,2684,FR,101,14001,48.83296,Lidl_FR_2684_14001,,19,5 allée des Palombes,https://spatial.virtualearth.net/REST/v1/data/717c7792c09a4aa4a53bb789c6bb94ee/Filialdaten-FR/Filialdaten-FR?spatialFilter=nearby(48.8569297790527342.3412001132965091000)&$filter=Adresstyp%20Eq%201&$top=1000&$format=json&key=AgC167Ojch2BCIEvqkvyrhl-yLiZLv6nCK_p0K1wyilYx4lcOnTjm6ud60JnqQAa,Lidl_FR_2684,LOGNES,77185,,lun-sam 8h30-20h,,FR,1,1,8,bake,,17/02/2015 18:29,2.63921,TRUE
Lidl,3144,FR,103,14001,48.9652,Lidl_FR_3144_14001,,26,Rue du 8 mai 1945  Avenue Thorez,https://spatial.virtualearth.net/REST/v1/data/717c7792c09a4aa4a53bb789c6bb94ee/Filialdaten-FR/Filialdaten-FR?spatialFilter=nearby(48.8569297790527342.3412001132965091000)&$filter=Adresstyp%20Eq%201&$top=1000&$format=json&key=AgC167Ojch2BCIEvqkvyrhl-yLiZLv6nCK_p0K1wyilYx4lcOnTjm6ud60JnqQAa,Lidl_FR_3144,ACHERES,78260,,lun-sam 8h30-19h30,,FR,1,1,8,bake,,17/02/2015 18:29,2.06775,TRUE
Lidl,1489,FR,104,14001,48.65016,Lidl_FR_1489_14001,,19,Avenue Paul Langevin 1,https://spatial.virtualearth.net/REST/v1/data/717c7792c09a4aa4a53bb789c6bb94ee/Filialdaten-FR/Filialdaten-FR?spatialFilter=nearby(48.8569297790527342.3412001132965091000)&$filter=Adresstyp%20Eq%201&$top=1000&$format=json&key=AgC167Ojch2BCIEvqkvyrhl-yLiZLv6nCK_p0K1wyilYx4lcOnTjm6ud60JnqQAa,Lidl_FR_1489,RIS ORANGIS,91130,,lun-sam 8h30-20h,,FR,1,1,8,bake,,17/02/2015 18:29,2.39923,TRUE
Lidl,633,FR,130,14001,49.0731,Lidl_FR_633_14001,,26,CD915 - Route de Gisors,https://spatial.virtualearth.net/REST/v1/data/717c7792c09a4aa4a53bb789c6bb94ee/Filialdaten-FR/Filialdaten-FR?spatialFilter=nearby(48.8569297790527342.3412001132965091000)&$filter=Adresstyp%20Eq%201&$top=1000&$format=json&key=AgC167Ojch2BCIEvqkvyrhl-yLiZLv6nCK_p0K1wyilYx4lcOnTjm6ud60JnqQAa,Lidl_FR_633,OSNY,95520,,lun-sam 08:30 - 20:00,,FR,1,1,8,,,17/02/2015 18:29,2.0798,TRUE
Lidl,3160,FR,131,14001,48.58278,Lidl_FR_3160_14001,,10,7 avenue des Courtes Epluches,https://spatial.virtualearth.net/REST/v1/data/717c7792c09a4aa4a53bb789c6bb94ee/Filialdaten-FR/Filialdaten-FR?spatialFilter=nearby(48.8569297790527342.3412001132965091000)&$filter=Adresstyp%20Eq%201&$top=1000&$format=json&key=AgC167Ojch2BCIEvqkvyrhl-yLiZLv6nCK_p0K1wyilYx4lcOnTjm6ud60JnqQAa,Lidl_FR_3160,VILLABE,91100,,lun-sam 8h30-20h,,FR,1,1,8,bake,,17/02/2015 18:29,2.45448,TRUE
Lidl,3205,FR,132,14001,48.75362,Lidl_FR_3205_14001,,26,19 Route Nationale 10,https://spatial.virtualearth.net/REST/v1/data/717c7792c09a4aa4a53bb789c6bb94ee/Filialdaten-FR/Filialdaten-FR?spatialFilter=nearby(48.8569297790527342.3412001132965091000)&$filter=Adresstyp%20Eq%201&$top=1000&$format=json&key=AgC167Ojch2BCIEvqkvyrhl-yLiZLv6nCK_p0K1wyilYx4lcOnTjm6ud60JnqQAa,Lidl_FR_3205,COIGNIERES,78310,,lun-ven 8h30-19h30 sam 8h30-19h,,FR,1,1,8,bake,,17/02/2015 18:29,1.93582,TRUE
Lidl,2013,FR,134,14001,49.14909,Lidl_FR_2013_14001,,6,57 rue de la Seigneurie,https://spatial.virtualearth.net/REST/v1/data/717c7792c09a4aa4a53bb789c6bb94ee/Filialdaten-FR/Filialdaten-FR?spatialFilter=nearby(48.8569297790527342.3412001132965091000)&$filter=Adresstyp%20Eq%201&$top=1000&$format=json&key=AgC167Ojch2BCIEvqkvyrhl-yLiZLv6nCK_p0K1wyilYx4lcOnTjm6ud60JnqQAa,Lidl_FR_2013,LAMORLAYE,60260,,lun-sam 8h30-19h30,,FR,1,1,8,bake,,17/02/2015 18:29,2.43278,TRUE
Lidl,3405,FR,121,14001,49.05514,Lidl_FR_3405_14001,,26,73 route de Gisors,https://spatial.virtualearth.net/REST/v1/data/717c7792c09a4aa4a53bb789c6bb94ee/Filialdaten-FR/Filialdaten-FR?spatialFilter=nearby(48.8569297790527342.3412001132965091000)&$filter=Adresstyp%20Eq%201&$top=1000&$format=json&key=AgC167Ojch2BCIEvqkvyrhl-yLiZLv6nCK_p0K1wyilYx4lcOnTjm6ud60JnqQAa,Lidl_FR_3405,PONTOISE,95300,,lun-sam:08:30-19:30,,FR,1,1,8,,,17/02/2015 18:29,2.09195,TRUE
Lidl,1030,FR,123,14001,48.597,Lidl_FR_1030_14001,,10,141 Route de Corbeil,https://spatial.virtualearth.net/REST/v1/data/717c7792c09a4aa4a53bb789c6bb94ee/Filialdaten-FR/Filialdaten-FR?spatialFilter=nearby(48.8569297790527342.3412001132965091000)&$filter=Adresstyp%20Eq%201&$top=1000&$format=json&key=AgC167Ojch2BCIEvqkvyrhl-yLiZLv6nCK_p0K1wyilYx4lcOnTjm6ud60JnqQAa,Lidl_FR_1030,ST GERMAIN LES ARPAJON,91180,,lun-ven : 09:00 - 20:00 sam : 09:00 - 19:30,,FR,1,1,8,bake,,17/02/2015 18:29,2.27856,TRUE
Lidl,1070,FR,124,14001,49.0227,Lidl_FR_1070_14001,,26,Mail Georges Brassens - C.C. desToupets,https://spatial.virtualearth.net/REST/v1/data/717c7792c09a4aa4a53bb789c6bb94ee/Filialdaten-FR/Filialdaten-FR?spatialFilter=nearby(48.8569297790527342.3412001132965091000)&$filter=Adresstyp%20Eq%201&$top=1000&$format=json&key=AgC167Ojch2BCIEvqkvyrhl-yLiZLv6nCK_p0K1wyilYx4lcOnTjm6ud60JnqQAa,Lidl_FR_1070,VAUREAL,95490,,lun-sam 8h30-19h30,,FR,1,1,8,bake,,17/02/2015 18:29,2.02912,TRUE
Lidl,1319,FR,112,14001,48.6322,Lidl_FR_1319_14001,,10,9/15 Rue du Plessis,https://spatial.virtualearth.net/REST/v1/data/717c7792c09a4aa4a53bb789c6bb94ee/Filialdaten-FR/Filialdaten-FR?spatialFilter=nearby(48.8569297790527342.3412001132965091000)&$filter=Adresstyp%20Eq%201&$top=1000&$format=json&key=AgC167Ojch2BCIEvqkvyrhl-yLiZLv6nCK_p0K1wyilYx4lcOnTjm6ud60JnqQAa,Lidl_FR_1319,STE GENEVIEVE DES BOIS,91700,,lun-ven : 08:30 - 20:00 sam : 08:30 - 19:30,,FR,1,1,8,,,17/02/2015 18:29,2.3342,TRUE
Lidl,3403,FR,113,14001,49.01301,Lidl_FR_3403_14001,,26,243 rue de l'Ambassadeur,https://spatial.virtualearth.net/REST/v1/data/717c7792c09a4aa4a53bb789c6bb94ee/Filialdaten-FR/Filialdaten-FR?spatialFilter=nearby(48.8569297790527342.3412001132965091000)&$filter=Adresstyp%20Eq%201&$top=1000&$format=json&key=AgC167Ojch2BCIEvqkvyrhl-yLiZLv6nCK_p0K1wyilYx4lcOnTjm6ud60JnqQAa,Lidl_FR_3403,CONFLANS STE HONORINE,78700,,lun-ven: 08:30-20:00 samedi : 08:30-19:30,,FR,1,1,8,,,17/02/2015 18:29,2.09106,TRUE
Lidl,3407,FR,114,14001,48.6341,Lidl_FR_3407_14001,,19,4 rue Descartes RN7,https://spatial.virtualearth.net/REST/v1/data/717c7792c09a4aa4a53bb789c6bb94ee/Filialdaten-FR/Filialdaten-FR?spatialFilter=nearby(48.8569297790527342.3412001132965091000)&$filter=Adresstyp%20Eq%201&$top=1000&$format=json&key=AgC167Ojch2BCIEvqkvyrhl-yLiZLv6nCK_p0K1wyilYx4lcOnTjm6ud60JnqQAa,Lidl_FR_3407,EVRY,91000,,lun-sam 08h30-20h00 dim 09h00-12h30,,FR,1,1,8,,,17/02/2015 18:29,2.43688,TRUE
Lidl,2691,FR,106,14001,48.71279,Lidl_FR_2691_14001,,19,99 rue des roses,https://spatial.virtualearth.net/REST/v1/data/717c7792c09a4aa4a53bb789c6bb94ee/Filialdaten-FR/Filialdaten-FR?spatialFilter=nearby(48.8569297790527342.3412001132965091000)&$filter=Adresstyp%20Eq%201&$top=1000&$format=json&key=AgC167Ojch2BCIEvqkvyrhl-yLiZLv6nCK_p0K1wyilYx4lcOnTjm6ud60JnqQAa,Lidl_FR_2691,SERVON,77170,,lun-sam 8h30-20h,,FR,1,1,8,bake,,17/02/2015 18:29,2.58115,TRUE
Lidl,653,FR,109,14001,48.95557,Lidl_FR_653_14001,,26,Route d'Andrésy,https://spatial.virtualearth.net/REST/v1/data/717c7792c09a4aa4a53bb789c6bb94ee/Filialdaten-FR/Filialdaten-FR?spatialFilter=nearby(48.8569297790527342.3412001132965091000)&$filter=Adresstyp%20Eq%201&$top=1000&$format=json&key=AgC167Ojch2BCIEvqkvyrhl-yLiZLv6nCK_p0K1wyilYx4lcOnTjm6ud60JnqQAa,Lidl_FR_653,CARRIERES SOUS POISSY,78300,,lun-sam : 08:00 - 19:30,,FR,1,1,8,,,17/02/2015 18:29,2.04244,TRUE
Lidl,3247,FR,97,14001,49.02915,Lidl_FR_3247_14001,,26,9 rue Théodore Monod,https://spatial.virtualearth.net/REST/v1/data/717c7792c09a4aa4a53bb789c6bb94ee/Filialdaten-FR/Filialdaten-FR?spatialFilter=nearby(48.8569297790527342.3412001132965091000)&$filter=Adresstyp%20Eq%201&$top=1000&$format=json&key=AgC167Ojch2BCIEvqkvyrhl-yLiZLv6nCK_p0K1wyilYx4lcOnTjm6ud60JnqQAa,Lidl_FR_3247,TAVERNY,95150,,lun-sam : 08h30-20h,,FR,1,1,8,bake,,17/02/2015 18:29,2.20971,TRUE
Lidl,3148,FR,98,14001,48.80872,Lidl_FR_3148_14001,,26,Rue de l'aérostation maritime,https://spatial.virtualearth.net/REST/v1/data/717c7792c09a4aa4a53bb789c6bb94ee/Filialdaten-FR/Filialdaten-FR?spatialFilter=nearby(48.8569297790527342.3412001132965091000)&$filter=Adresstyp%20Eq%201&$top=1000&$format=json&key=AgC167Ojch2BCIEvqkvyrhl-yLiZLv6nCK_p0K1wyilYx4lcOnTjm6ud60JnqQAa,Lidl_FR_3148,ST CYR L'ECOLE,78210,,lun-ven 8h30-20h sam 8h30-19h30,,FR,1,1,8,bake,,17/02/2015 18:29,2.05563,TRUE
Lidl,1490,FR,115,14001,48.70132,Lidl_FR_1490_14001,,19,Rue Gustave Eiffel - Rue Galilée,https://spatial.virtualearth.net/REST/v1/data/717c7792c09a4aa4a53bb789c6bb94ee/Filialdaten-FR/Filialdaten-FR?spatialFilter=nearby(48.8569297790527342.3412001132965091000)&$filter=Adresstyp%20Eq%201&$top=1000&$format=json&key=AgC167Ojch2BCIEvqkvyrhl-yLiZLv6nCK_p0K1wyilYx4lcOnTjm6ud60JnqQAa,Lidl_FR_1490,BRIE COMTE ROBERT,77170,,lun-sam 8h30-20h,,FR,1,1,8,bake,,17/02/2015 18:29,2.60277,TRUE
Lidl,1014,FR,117,14001,48.77556,Lidl_FR_1014_14001,,19,Avenue du Général Leclerc,https://spatial.virtualearth.net/REST/v1/data/717c7792c09a4aa4a53bb789c6bb94ee/Filialdaten-FR/Filialdaten-FR?spatialFilter=nearby(48.8569297790527342.3412001132965091000)&$filter=Adresstyp%20Eq%201&$top=1000&$format=json&key=AgC167Ojch2BCIEvqkvyrhl-yLiZLv6nCK_p0K1wyilYx4lcOnTjm6ud60JnqQAa,Lidl_FR_1014,OZOIR LA FERRIERE,77330,,lun-sam 8h30-20h,,FR,1,1,8,bake,,17/02/2015 18:29,2.67749,TRUE
Lidl,3016,FR,161,14001,48.56122,Lidl_FR_3016_14001,,19,3 rue du Général de Gaulle,https://spatial.virtualearth.net/REST/v1/data/717c7792c09a4aa4a53bb789c6bb94ee/Filialdaten-FR/Filialdaten-FR?spatialFilter=nearby(48.8569297790527342.3412001132965091000)&$filter=Adresstyp%20Eq%201&$top=1000&$format=json&key=AgC167Ojch2BCIEvqkvyrhl-yLiZLv6nCK_p0K1wyilYx4lcOnTjm6ud60JnqQAa,Lidl_FR_3016,NANGIS,77370,,lun-sam 8h30-19h30,,FR,1,1,8,bake,,17/02/2015 18:29,3.01519,TRUE
Lidl,3113,FR,162,14001,49.27701,Lidl_FR_3113_14001,,11,rue Faubourg de Neaufles,https://spatial.virtualearth.net/REST/v1/data/717c7792c09a4aa4a53bb789c6bb94ee/Filialdaten-FR/Filialdaten-FR?spatialFilter=nearby(48.8569297790527342.3412001132965091000)&$filter=Adresstyp%20Eq%201&$top=1000&$format=json&key=AgC167Ojch2BCIEvqkvyrhl-yLiZLv6nCK_p0K1wyilYx4lcOnTjm6ud60JnqQAa,Lidl_FR_3113,GISORS,27140,,lun-ven : 8:30 - 19:30  sam : 8:30 - 19:00,,FR,1,1,8,bake,,17/02/2015 18:29,1.76418,TRUE
Lidl,1492,FR,163,14001,48.36981,Lidl_FR_1492_14001,,19,22 avenue de Sens,https://spatial.virtualearth.net/REST/v1/data/717c7792c09a4aa4a53bb789c6bb94ee/Filialdaten-FR/Filialdaten-FR?spatialFilter=nearby(48.8569297790527342.3412001132965091000)&$filter=Adresstyp%20Eq%201&$top=1000&$format=json&key=AgC167Ojch2BCIEvqkvyrhl-yLiZLv6nCK_p0K1wyilYx4lcOnTjm6ud60JnqQAa,Lidl_FR_1492,ECUELLES,77250,,lun-sam 8h30-19h30,,FR,1,1,8,bake,,17/02/2015 18:29,2.82829,TRUE
Lidl,1074,FR,165,14001,49.42379,Lidl_FR_1074_14001,,6,Rue du Moulin Bracheux,https://spatial.virtualearth.net/REST/v1/data/717c7792c09a4aa4a53bb789c6bb94ee/Filialdaten-FR/Filialdaten-FR?spatialFilter=nearby(48.8569297790527342.3412001132965091000)&$filter=Adresstyp%20Eq%201&$top=1000&$format=json&key=AgC167Ojch2BCIEvqkvyrhl-yLiZLv6nCK_p0K1wyilYx4lcOnTjm6ud60JnqQAa,Lidl_FR_1074,BEAUVAIS,60000,,lun-sam 8h30-19h30,,FR,1,1,8,,,17/02/2015 18:29,2.11483,TRUE
Lidl,695,FR,166,14001,49.09779,Lidl_FR_695_14001,,11,4 rue Ogereau,https://spatial.virtualearth.net/REST/v1/data/717c7792c09a4aa4a53bb789c6bb94ee/Filialdaten-FR/Filialdaten-FR?spatialFilter=nearby(48.8569297790527342.3412001132965091000)&$filter=Adresstyp%20Eq%201&$top=1000&$format=json&key=AgC167Ojch2BCIEvqkvyrhl-yLiZLv6nCK_p0K1wyilYx4lcOnTjm6ud60JnqQAa,Lidl_FR_695,VERNON,27200,,lun-ven : 08:30 - 19:30 sam : 08:30 - 19:00,,FR,1,1,8,,,17/02/2015 18:29,1.49005,TRUE
Lidl,657,FR,167,14001,49.44382,Lidl_FR_657_14001,,6,Avenue Marcel Dassault,https://spatial.virtualearth.net/REST/v1/data/717c7792c09a4aa4a53bb789c6bb94ee/Filialdaten-FR/Filialdaten-FR?spatialFilter=nearby(48.8569297790527342.3412001132965091000)&$filter=Adresstyp%20Eq%201&$top=1000&$format=json&key=AgC167Ojch2BCIEvqkvyrhl-yLiZLv6nCK_p0K1wyilYx4lcOnTjm6ud60JnqQAa,Lidl_FR_657,BEAUVAIS,60000,,lun-sam 8h30-19h30,,FR,1,1,8,bake,,17/02/2015 18:29,2.09309,TRUE
Lidl,1005,FR,168,14001,48.39955,Lidl_FR_1005_14001,,19,1 rue d'Enfer,https://spatial.virtualearth.net/REST/v1/data/717c7792c09a4aa4a53bb789c6bb94ee/Filialdaten-FR/Filialdaten-FR?spatialFilter=nearby(48.8569297790527342.3412001132965091000)&$filter=Adresstyp%20Eq%201&$top=1000&$format=json&key=AgC167Ojch2BCIEvqkvyrhl-yLiZLv6nCK_p0K1wyilYx4lcOnTjm6ud60JnqQAa,Lidl_FR_1005,MONTEREAU FAULT YONNE,77130,,lun-sam 8h30-19h30,,FR,1,1,8,bake,,17/02/2015 18:29,2.95098,TRUE
Lidl,1364,FR,170,14001,49.40667,Lidl_FR_1364_14001,,6,25 Avenue de  L'Europe,https://spatial.virtualearth.net/REST/v1/data/717c7792c09a4aa4a53bb789c6bb94ee/Filialdaten-FR/Filialdaten-FR?spatialFilter=nearby(48.8569297790527342.3412001132965091000)&$filter=Adresstyp%20Eq%201&$top=1000&$format=json&key=AgC167Ojch2BCIEvqkvyrhl-yLiZLv6nCK_p0K1wyilYx4lcOnTjm6ud60JnqQAa,Lidl_FR_1364,JAUX VENETTE,60880,,lun-sam 8h30-19h30,,FR,1,1,8,bake,,17/02/2015 18:29,2.78031,TRUE
Lidl,2451,FR,178,14001,48.19064,Lidl_FR_2451_14001,,10,11 avenue du 11 novembre 1918,https://spatial.virtualearth.net/REST/v1/data/717c7792c09a4aa4a53bb789c6bb94ee/Filialdaten-FR/Filialdaten-FR?spatialFilter=nearby(48.8569297790527342.3412001132965091000)&$filter=Adresstyp%20Eq%201&$top=1000&$format=json&key=AgC167Ojch2BCIEvqkvyrhl-yLiZLv6nCK_p0K1wyilYx4lcOnTjm6ud60JnqQAa,Lidl_FR_2451,PITHIVIERS,45300,,lun-ven : 08:30 - 20:00 sam : 08:30 - 19:30,,FR,1,1,8,bake,,17/02/2015 18:29,2.24658,TRUE
Lidl,1016,FR,179,14001,48.54946,Lidl_FR_1016_14001,,19,13 Avenue de la Voulzie,https://spatial.virtualearth.net/REST/v1/data/717c7792c09a4aa4a53bb789c6bb94ee/Filialdaten-FR/Filialdaten-FR?spatialFilter=nearby(48.8569297790527342.3412001132965091000)&$filter=Adresstyp%20Eq%201&$top=1000&$format=json&key=AgC167Ojch2BCIEvqkvyrhl-yLiZLv6nCK_p0K1wyilYx4lcOnTjm6ud60JnqQAa,Lidl_FR_1016,PROVINS,77160,,lun-sam 8h30-19h30,,FR,1,1,8,bake,,17/02/2015 18:29,3.29511,TRUE
Lidl,2675,FR,172,14001,49.24152,Lidl_FR_2675_14001,,6,9 avenue de la Ferté Milon,https://spatial.virtualearth.net/REST/v1/data/717c7792c09a4aa4a53bb789c6bb94ee/Filialdaten-FR/Filialdaten-FR?spatialFilter=nearby(48.8569297790527342.3412001132965091000)&$filter=Adresstyp%20Eq%201&$top=1000&$format=json&key=AgC167Ojch2BCIEvqkvyrhl-yLiZLv6nCK_p0K1wyilYx4lcOnTjm6ud60JnqQAa,Lidl_FR_2675,VILLERS COTTERETS,2600,,lun-sam 8h30-19h30,,FR,1,1,8,bake,,17/02/2015 18:29,3.09817,TRUE
Lidl,1854,FR,173,14001,48.7754,Lidl_FR_1854_14001,,19,Route de Provins - ZAE Le Petit Taillis,https://spatial.virtualearth.net/REST/v1/data/717c7792c09a4aa4a53bb789c6bb94ee/Filialdaten-FR/Filialdaten-FR?spatialFilter=nearby(48.8569297790527342.3412001132965091000)&$filter=Adresstyp%20Eq%201&$top=1000&$format=json&key=AgC167Ojch2BCIEvqkvyrhl-yLiZLv6nCK_p0K1wyilYx4lcOnTjm6ud60JnqQAa,Lidl_FR_1854,LA FERTE GAUCHER,77320,,lun-sam 8h30-19h30,,FR,1,1,8,bake,,17/02/2015 18:29,3.29272,TRUE
Lidl,1032,FR,147,14001,48.52764,Lidl_FR_1032_14001,,19,536 Rue des Frères Thibault,https://spatial.virtualearth.net/REST/v1/data/717c7792c09a4aa4a53bb789c6bb94ee/Filialdaten-FR/Filialdaten-FR?spatialFilter=nearby(48.8569297790527342.3412001132965091000)&$filter=Adresstyp%20Eq%201&$top=1000&$format=json&key=AgC167Ojch2BCIEvqkvyrhl-yLiZLv6nCK_p0K1wyilYx4lcOnTjm6ud60JnqQAa,Lidl_FR_1032,DAMMARIE LES LYS,77190,,lun-sam 8h30-20h,,FR,1,1,8,,,17/02/2015 18:29,2.6455,TRUE
Lidl,640,FR,148,14001,49.23579,Lidl_FR_640_14001,,6,Rue des Montagnards,https://spatial.virtualearth.net/REST/v1/data/717c7792c09a4aa4a53bb789c6bb94ee/Filialdaten-FR/Filialdaten-FR?spatialFilter=nearby(48.8569297790527342.3412001132965091000)&$filter=Adresstyp%20Eq%201&$top=1000&$format=json&key=AgC167Ojch2BCIEvqkvyrhl-yLiZLv6nCK_p0K1wyilYx4lcOnTjm6ud60JnqQAa,Lidl_FR_640,SAINT MAXIMIN,60740,,lun-sam 8h30-19h30,,FR,1,1,8,bake,,17/02/2015 18:29,2.46833,TRUE
Lidl,1487,FR,136,14001,48.58564,Lidl_FR_1487_14001,,19,9 rue Cobalt,https://spatial.virtualearth.net/REST/v1/data/717c7792c09a4aa4a53bb789c6bb94ee/Filialdaten-FR/Filialdaten-FR?spatialFilter=nearby(48.8569297790527342.3412001132965091000)&$filter=Adresstyp%20Eq%201&$top=1000&$format=json&key=AgC167Ojch2BCIEvqkvyrhl-yLiZLv6nCK_p0K1wyilYx4lcOnTjm6ud60JnqQAa,Lidl_FR_1487,SAVIGNY LE TEMPLE,77176,,lun-sam 8h30-20h,,FR,1,1,8,bake,,17/02/2015 18:29,2.59252,TRUE
Lidl,3014,FR,137,14001,49.01173,Lidl_FR_3014_14001,,26,25 avenue des Aulnes,https://spatial.virtualearth.net/REST/v1/data/717c7792c09a4aa4a53bb789c6bb94ee/Filialdaten-FR/Filialdaten-FR?spatialFilter=nearby(48.8569297790527342.3412001132965091000)&$filter=Adresstyp%20Eq%201&$top=1000&$format=json&key=AgC167Ojch2BCIEvqkvyrhl-yLiZLv6nCK_p0K1wyilYx4lcOnTjm6ud60JnqQAa,Lidl_FR_3014,MEULAN,78250,,lun-sam 8h30-20h,,FR,1,1,8,bake,,17/02/2015 18:29,1.90192,TRUE
Lidl,1865,FR,150,14001,48.9576,Lidl_FR_1865_14001,,19,RN 3 - Avenue de la Victoire,https://spatial.virtualearth.net/REST/v1/data/717c7792c09a4aa4a53bb789c6bb94ee/Filialdaten-FR/Filialdaten-FR?spatialFilter=nearby(48.8569297790527342.3412001132965091000)&$filter=Adresstyp%20Eq%201&$top=1000&$format=json&key=AgC167Ojch2BCIEvqkvyrhl-yLiZLv6nCK_p0K1wyilYx4lcOnTjm6ud60JnqQAa,Lidl_FR_1865,MEAUX,77100,,lun-sam 8h30-20h,,FR,1,1,8,bake,,17/02/2015 18:29,2.92835,TRUE
Lidl,2846,FR,142,14001,48.962,Lidl_FR_2846_14001,,26,ZAC de la Vallée,https://spatial.virtualearth.net/REST/v1/data/717c7792c09a4aa4a53bb789c6bb94ee/Filialdaten-FR/Filialdaten-FR?spatialFilter=nearby(48.8569297790527342.3412001132965091000)&$filter=Adresstyp%20Eq%201&$top=1000&$format=json&key=AgC167Ojch2BCIEvqkvyrhl-yLiZLv6nCK_p0K1wyilYx4lcOnTjm6ud60JnqQAa,Lidl_FR_2846,MEZIERES SUR SEINE,78970,,lun-sam : 08:30-20:00,,FR,1,1,8,bake,,17/02/2015 18:29,1.80239,TRUE
Lidl,1852,FR,156,14001,49.3247,Lidl_FR_1852_14001,,6,8 rue Parmentier,https://spatial.virtualearth.net/REST/v1/data/717c7792c09a4aa4a53bb789c6bb94ee/Filialdaten-FR/Filialdaten-FR?spatialFilter=nearby(48.8569297790527342.3412001132965091000)&$filter=Adresstyp%20Eq%201&$top=1000&$format=json&key=AgC167Ojch2BCIEvqkvyrhl-yLiZLv6nCK_p0K1wyilYx4lcOnTjm6ud60JnqQAa,Lidl_FR_1852,RANTIGNY,60290,,lun-sam 8h30-19h30,,FR,1,1,8,bake,,17/02/2015 18:29,2.44824,TRUE
Lidl,1007,FR,201,14001,48.00421,Lidl_FR_1007_14001,,10,2 avenue Louis Maurice Chautemp,https://spatial.virtualearth.net/REST/v1/data/717c7792c09a4aa4a53bb789c6bb94ee/Filialdaten-FR/Filialdaten-FR?spatialFilter=nearby(48.8569297790527342.3412001132965091000)&$filter=Adresstyp%20Eq%201&$top=1000&$format=json&key=AgC167Ojch2BCIEvqkvyrhl-yLiZLv6nCK_p0K1wyilYx4lcOnTjm6ud60JnqQAa,Lidl_FR_1007,MONTARGIS,45200,,lun-ven : 08:30 - 20:00 sam : 08:30 - 19:30,,FR,1,1,8,,,17/02/2015 18:29,2.74303,TRUE
Lidl,1748,FR,203,14001,49.76809,Lidl_FR_1748_14001,,25,Lieudit la Fosse Landon,https://spatial.virtualearth.net/REST/v1/data/717c7792c09a4aa4a53bb789c6bb94ee/Filialdaten-FR/Filialdaten-FR?spatialFilter=nearby(48.8569297790527342.3412001132965091000)&$filter=Adresstyp%20Eq%201&$top=1000&$format=json&key=AgC167Ojch2BCIEvqkvyrhl-yLiZLv6nCK_p0K1wyilYx4lcOnTjm6ud60JnqQAa,Lidl_FR_1748,MORISEL,80110,,lun-ven 8h30-19h30 /  sam 8h30-19h,,FR,1,1,8,bake,,17/02/2015 18:29,2.46896,TRUE
Lidl,1036,FR,204,14001,47.97463,Lidl_FR_1036_14001,,10,195 Avenue de l'Europe,https://spatial.virtualearth.net/REST/v1/data/717c7792c09a4aa4a53bb789c6bb94ee/Filialdaten-FR/Filialdaten-FR?spatialFilter=nearby(48.8569297790527342.3412001132965091000)&$filter=Adresstyp%20Eq%201&$top=1000&$format=json&key=AgC167Ojch2BCIEvqkvyrhl-yLiZLv6nCK_p0K1wyilYx4lcOnTjm6ud60JnqQAa,Lidl_FR_1036,AMILLY,45200,,lun sam : 08:30 - 20:00 sam : 08:30 - 19:30,,FR,1,1,8,,,17/02/2015 18:29,2.73068,TRUE
Lidl,1276,FR,205,14001,48.96101,Lidl_FR_1276_14001,,11,36-38 rue de Sainte Floy - Avenue des Promenades,https://spatial.virtualearth.net/REST/v1/data/717c7792c09a4aa4a53bb789c6bb94ee/Filialdaten-FR/Filialdaten-FR?spatialFilter=nearby(48.8569297790527342.3412001132965091000)&$filter=Adresstyp%20Eq%201&$top=1000&$format=json&key=AgC167Ojch2BCIEvqkvyrhl-yLiZLv6nCK_p0K1wyilYx4lcOnTjm6ud60JnqQAa,Lidl_FR_1276,CONCHES EN OUCHE,27190,,lun-ven : 08:30 - 19:30 sam : 08:30 - 19:00,,FR,1,1,8,,,17/02/2015 18:29,0.94182,TRUE
Lidl,3018,FR,192,14001,48.09213,Lidl_FR_3018_14001,,10,Rue du Bois Planté,https://spatial.virtualearth.net/REST/v1/data/717c7792c09a4aa4a53bb789c6bb94ee/Filialdaten-FR/Filialdaten-FR?spatialFilter=nearby(48.8569297790527342.3412001132965091000)&$filter=Adresstyp%20Eq%201&$top=1000&$format=json&key=AgC167Ojch2BCIEvqkvyrhl-yLiZLv6nCK_p0K1wyilYx4lcOnTjm6ud60JnqQAa,Lidl_FR_3018,FERRIERES EN GATINAIS,45210,,lun-ven : 08:30 - 20:00 sam : 08:30 - 19:30,,FR,1,1,8,,,17/02/2015 18:29,2.80272,TRUE
Lidl,3153,FR,193,14001,49.57319,Lidl_FR_3153_14001,,6,ZAC du Mont Renaud,https://spatial.virtualearth.net/REST/v1/data/717c7792c09a4aa4a53bb789c6bb94ee/Filialdaten-FR/Filialdaten-FR?spatialFilter=nearby(48.8569297790527342.3412001132965091000)&$filter=Adresstyp%20Eq%201&$top=1000&$format=json&key=AgC167Ojch2BCIEvqkvyrhl-yLiZLv6nCK_p0K1wyilYx4lcOnTjm6ud60JnqQAa,Lidl_FR_3153,NOYON,60400,,lun-sam 8h30-19h30,,FR,1,1,8,bake,,17/02/2015 18:29,2.9783,TRUE
Lidl,1874,FR,194,14001,49.20781,Lidl_FR_1874_14001,,19,Lieudit le Parchet - RD 2,https://spatial.virtualearth.net/REST/v1/data/717c7792c09a4aa4a53bb789c6bb94ee/Filialdaten-FR/Filialdaten-FR?spatialFilter=nearby(48.8569297790527342.3412001132965091000)&$filter=Adresstyp%20Eq%201&$top=1000&$format=json&key=AgC167Ojch2BCIEvqkvyrhl-yLiZLv6nCK_p0K1wyilYx4lcOnTjm6ud60JnqQAa,Lidl_FR_1874,SAPONAY,2130,,lun-sam 8h30-19h30,,FR,1,1,8,bake,,17/02/2015 18:29,3.50075,TRUE
Lidl,1223,FR,195,14001,49.38873,Lidl_FR_1223_14001,,6,Avenue de Laon,https://spatial.virtualearth.net/REST/v1/data/717c7792c09a4aa4a53bb789c6bb94ee/Filialdaten-FR/Filialdaten-FR?spatialFilter=nearby(48.8569297790527342.3412001132965091000)&$filter=Adresstyp%20Eq%201&$top=1000&$format=json&key=AgC167Ojch2BCIEvqkvyrhl-yLiZLv6nCK_p0K1wyilYx4lcOnTjm6ud60JnqQAa,Lidl_FR_1223,SOISSONS,2200,,lun-sam 8h30-19h30,,FR,1,1,8,bake,,17/02/2015 18:29,3.3364,TRUE
Lidl,3210,FR,217,14001,48.09097,Lidl_FR_3210_14001,,19,Faubourg St Nicolas,https://spatial.virtualearth.net/REST/v1/data/717c7792c09a4aa4a53bb789c6bb94ee/Filialdaten-FR/Filialdaten-FR?spatialFilter=nearby(48.8569297790527342.3412001132965091000)&$filter=Adresstyp%20Eq%201&$top=1000&$format=json&key=AgC167Ojch2BCIEvqkvyrhl-yLiZLv6nCK_p0K1wyilYx4lcOnTjm6ud60JnqQAa,Lidl_FR_3210,VILLENEUVE SUR YONNE,89500,,lun-sam 8h30-19h30,,FR,1,1,8,bake,,17/02/2015 18:29,3.2956,TRUE
Lidl,3207,FR,218,14001,49.65052,Lidl_FR_3207_14001,,25,route de Chauny,https://spatial.virtualearth.net/REST/v1/data/717c7792c09a4aa4a53bb789c6bb94ee/Filialdaten-FR/Filialdaten-FR?spatialFilter=nearby(48.8569297790527342.3412001132965091000)&$filter=Adresstyp%20Eq%201&$top=1000&$format=json&key=AgC167Ojch2BCIEvqkvyrhl-yLiZLv6nCK_p0K1wyilYx4lcOnTjm6ud60JnqQAa,Lidl_FR_3207,CONDREN,2700,,lun-ven : 08h30-19h30 /  sam: 08h30-19h00,,FR,1,1,8,bake,,17/02/2015 18:29,3.27584,TRUE
Lidl,3108,FR,219,14001,49.36394,Lidl_FR_3108_14001,,11,4 rue Léon Blum,https://spatial.virtualearth.net/REST/v1/data/717c7792c09a4aa4a53bb789c6bb94ee/Filialdaten-FR/Filialdaten-FR?spatialFilter=nearby(48.8569297790527342.3412001132965091000)&$filter=Adresstyp%20Eq%201&$top=1000&$format=json&key=AgC167Ojch2BCIEvqkvyrhl-yLiZLv6nCK_p0K1wyilYx4lcOnTjm6ud60JnqQAa,Lidl_FR_3108,GRAND COURONNE,76530,,lun-ven : 08:30 - 19:30 sam : 08:30 - 19:00,,FR,1,1,8,bake,,17/02/2015 18:29,1.01602,TRUE
Lidl,2020,FR,182,14001,49.03697,Lidl_FR_2020_14001,,19,37 rue de la Prairie,https://spatial.virtualearth.net/REST/v1/data/717c7792c09a4aa4a53bb789c6bb94ee/Filialdaten-FR/Filialdaten-FR?spatialFilter=nearby(48.8569297790527342.3412001132965091000)&$filter=Adresstyp%20Eq%201&$top=1000&$format=json&key=AgC167Ojch2BCIEvqkvyrhl-yLiZLv6nCK_p0K1wyilYx4lcOnTjm6ud60JnqQAa,Lidl_FR_2020,CHATEAU THIERRY,2400,,lun-sam 8h30-19h30,,FR,1,1,8,bake,,17/02/2015 18:29,3.39606,TRUE
Lidl,2510,FR,183,14001,49.17323,Lidl_FR_2510_14001,,11,1 rue Jean Moulin,https://spatial.virtualearth.net/REST/v1/data/717c7792c09a4aa4a53bb789c6bb94ee/Filialdaten-FR/Filialdaten-FR?spatialFilter=nearby(48.8569297790527342.3412001132965091000)&$filter=Adresstyp%20Eq%201&$top=1000&$format=json&key=AgC167Ojch2BCIEvqkvyrhl-yLiZLv6nCK_p0K1wyilYx4lcOnTjm6ud60JnqQAa,Lidl_FR_2510,AUBEVOYE,27940,,lun-ven : 08:30 - 19:30 sam : 08:30 - 19:00,,FR,1,1,8,bake,,17/02/2015 18:29,1.35216,TRUE
Lidl,1023,FR,184,14001,48.42753,Lidl_FR_1023_14001,,26,Rue Gutenberg,https://spatial.virtualearth.net/REST/v1/data/717c7792c09a4aa4a53bb789c6bb94ee/Filialdaten-FR/Filialdaten-FR?spatialFilter=nearby(48.8569297790527342.3412001132965091000)&$filter=Adresstyp%20Eq%201&$top=1000&$format=json&key=AgC167Ojch2BCIEvqkvyrhl-yLiZLv6nCK_p0K1wyilYx4lcOnTjm6ud60JnqQAa,Lidl_FR_1023,LUISANT,28600,,lun-sam 9h-19h30,,FR,1,1,8,,,17/02/2015 18:29,1.46324,TRUE
Lidl,352,FR,211,14001,48.51019,Lidl_FR_352_14001,,19,Avenue P.Brossolette,https://spatial.virtualearth.net/REST/v1/data/717c7792c09a4aa4a53bb789c6bb94ee/Filialdaten-FR/Filialdaten-FR?spatialFilter=nearby(48.8569297790527342.3412001132965091000)&$filter=Adresstyp%20Eq%201&$top=1000&$format=json&key=AgC167Ojch2BCIEvqkvyrhl-yLiZLv6nCK_p0K1wyilYx4lcOnTjm6ud60JnqQAa,Lidl_FR_352,ROMILLY SUR SEINE,10100,,lun-sam 8h30-19h30,,FR,1,1,8,bake,,17/02/2015 18:29,3.725,TRUE
Lidl,1010,FR,212,14001,47.92344,Lidl_FR_1010_14001,,18,11 Rue André Dessaux,https://spatial.virtualearth.net/REST/v1/data/717c7792c09a4aa4a53bb789c6bb94ee/Filialdaten-FR/Filialdaten-FR?spatialFilter=nearby(48.8569297790527342.3412001132965091000)&$filter=Adresstyp%20Eq%201&$top=1000&$format=json&key=AgC167Ojch2BCIEvqkvyrhl-yLiZLv6nCK_p0K1wyilYx4lcOnTjm6ud60JnqQAa,Lidl_FR_1010,FLEURY LES AUBRAIS,45400,,lun-sam 8h30-19h30,,FR,1,1,8,bake,,17/02/2015 18:29,1.901,TRUE
Lidl,383,FR,213,14001,49.30894,Lidl_FR_383_14001,,19,52 Route de Soissons,https://spatial.virtualearth.net/REST/v1/data/717c7792c09a4aa4a53bb789c6bb94ee/Filialdaten-FR/Filialdaten-FR?spatialFilter=nearby(48.8569297790527342.3412001132965091000)&$filter=Adresstyp%20Eq%201&$top=1000&$format=json&key=AgC167Ojch2BCIEvqkvyrhl-yLiZLv6nCK_p0K1wyilYx4lcOnTjm6ud60JnqQAa,Lidl_FR_383,FISMES,51170,,lun-sam 8h30-19h30,,FR,1,1,8,bake,,17/02/2015 18:29,3.6681,TRUE
Lidl,1173,FR,222,14001,49.86875,Lidl_FR_1173_14001,,25,Route de St Quentin - ZA de l'Arc,https://spatial.virtualearth.net/REST/v1/data/717c7792c09a4aa4a53bb789c6bb94ee/Filialdaten-FR/Filialdaten-FR?spatialFilter=nearby(48.8569297790527342.3412001132965091000)&$filter=Adresstyp%20Eq%201&$top=1000&$format=json&key=AgC167Ojch2BCIEvqkvyrhl-yLiZLv6nCK_p0K1wyilYx4lcOnTjm6ud60JnqQAa,Lidl_FR_1173,LONGUEAU,80330,,lun-ven 8h30-19h30 /  sam 8h30-19h,,FR,1,1,8,bake,,17/02/2015 18:29,2.37203,TRUE
Lidl,691,FR,225,14001,49.4769,Lidl_FR_691_14001,,11,ZAC des Bocquets - Rue de Velzen et Jean Monnet,https://spatial.virtualearth.net/REST/v1/data/717c7792c09a4aa4a53bb789c6bb94ee/Filialdaten-FR/Filialdaten-FR?spatialFilter=nearby(48.8569297790527342.3412001132965091000)&$filter=Adresstyp%20Eq%201&$top=1000&$format=json&key=AgC167Ojch2BCIEvqkvyrhl-yLiZLv6nCK_p0K1wyilYx4lcOnTjm6ud60JnqQAa,Lidl_FR_691,BOIS GUILLAUME,76230,,lun-ven : 08:30 - 19:30 sam : 08:30 - 19:00,,FR,1,1,8,bake,,17/02/2015 18:29,1.1074,TRUE
Lidl,1162,FR,207,14001,49.40489,Lidl_FR_1162_14001,,11,2 Place Haut Hubert,https://spatial.virtualearth.net/REST/v1/data/717c7792c09a4aa4a53bb789c6bb94ee/Filialdaten-FR/Filialdaten-FR?spatialFilter=nearby(48.8569297790527342.3412001132965091000)&$filter=Adresstyp%20Eq%201&$top=1000&$format=json&key=AgC167Ojch2BCIEvqkvyrhl-yLiZLv6nCK_p0K1wyilYx4lcOnTjm6ud60JnqQAa,Lidl_FR_1162,FRANQUEVILLE SAINT PIERRE,76520,,lun-ven : 08:30 - 19:30 sam : 08:30 - 19:00,,FR,1,1,8,bake,,17/02/2015 18:29,1.15478,TRUE
Lidl,671,FR,209,14001,49.27577,Lidl_FR_671_14001,,11,17 bis rue de la République,https://spatial.virtualearth.net/REST/v1/data/717c7792c09a4aa4a53bb789c6bb94ee/Filialdaten-FR/Filialdaten-FR?spatialFilter=nearby(48.8569297790527342.3412001132965091000)&$filter=Adresstyp%20Eq%201&$top=1000&$format=json&key=AgC167Ojch2BCIEvqkvyrhl-yLiZLv6nCK_p0K1wyilYx4lcOnTjm6ud60JnqQAa,Lidl_FR_671,CAUDEBEC LES ELBEUF,76320,,lun-ven : 08:30 - 19:30 sam : 08:30 - 19:00,,FR,1,1,8,bake,,17/02/2015 18:29,1.03188,TRUE
Lidl,1870,FR,190,14001,48.87193,Lidl_FR_1870_14001,,19,Rue de la Guinotterie - ZI du Mondant,https://spatial.virtualearth.net/REST/v1/data/717c7792c09a4aa4a53bb789c6bb94ee/Filialdaten-FR/Filialdaten-FR?spatialFilter=nearby(48.8569297790527342.3412001132965091000)&$filter=Adresstyp%20Eq%201&$top=1000&$format=json&key=AgC167Ojch2BCIEvqkvyrhl-yLiZLv6nCK_p0K1wyilYx4lcOnTjm6ud60JnqQAa,Lidl_FR_1870,MONTMIRAIL,51210,,lun-sam 8h30-19h30,,FR,1,1,8,bake,,17/02/2015 18:29,3.56039,TRUE
Lidl,2688,FR,196,14001,48.48599,Lidl_FR_2688_14001,,19,rue Fontaine Baron,https://spatial.virtualearth.net/REST/v1/data/717c7792c09a4aa4a53bb789c6bb94ee/Filialdaten-FR/Filialdaten-FR?spatialFilter=nearby(48.8569297790527342.3412001132965091000)&$filter=Adresstyp%20Eq%201&$top=1000&$format=json&key=AgC167Ojch2BCIEvqkvyrhl-yLiZLv6nCK_p0K1wyilYx4lcOnTjm6ud60JnqQAa,Lidl_FR_2688,NOGENT SUR SEINE,10400,,lun-sam 8h30-19h30,,FR,1,1,8,bake,,17/02/2015 18:29,3.48644,TRUE
Lidl,1973,FR,232,14001,49.07718,Lidl_FR_1973_14001,,11,16 rue Aristide Briand,https://spatial.virtualearth.net/REST/v1/data/717c7792c09a4aa4a53bb789c6bb94ee/Filialdaten-FR/Filialdaten-FR?spatialFilter=nearby(48.8569297790527342.3412001132965091000)&$filter=Adresstyp%20Eq%201&$top=1000&$format=json&key=AgC167Ojch2BCIEvqkvyrhl-yLiZLv6nCK_p0K1wyilYx4lcOnTjm6ud60JnqQAa,Lidl_FR_1973,BEAUMONT LE ROGER,27170,,lun-ven : 08:30 - 19:30 sam : 08:30 - 19:00,,FR,1,1,8,bake,,17/02/2015 18:29,0.77166,TRUE
Lidl,619,FR,233,14001,49.73277,Lidl_FR_619_14001,,11,9 rue de la Grande Flandre,https://spatial.virtualearth.net/REST/v1/data/717c7792c09a4aa4a53bb789c6bb94ee/Filialdaten-FR/Filialdaten-FR?spatialFilter=nearby(48.8569297790527342.3412001132965091000)&$filter=Adresstyp%20Eq%201&$top=1000&$format=json&key=AgC167Ojch2BCIEvqkvyrhl-yLiZLv6nCK_p0K1wyilYx4lcOnTjm6ud60JnqQAa,Lidl_FR_619,NEUFCHATEL EN BRAY,76270,,lun-ven : 08:30 - 19:30 sam : 08:30 - 19:00,,FR,1,1,8,bake,,17/02/2015 18:29,1.43415,TRUE
Lidl,442,FR,234,14001,49.9136,Lidl_FR_442_14001,,25,1 et 3 rue de la Crête,https://spatial.virtualearth.net/REST/v1/data/717c7792c09a4aa4a53bb789c6bb94ee/Filialdaten-FR/Filialdaten-FR?spatialFilter=nearby(48.8569297790527342.3412001132965091000)&$filter=Adresstyp%20Eq%201&$top=1000&$format=json&key=AgC167Ojch2BCIEvqkvyrhl-yLiZLv6nCK_p0K1wyilYx4lcOnTjm6ud60JnqQAa,Lidl_FR_442,CORBIE,80800,,lun-ven 8h30-19h30 /  sam 8h30-19h,,FR,1,1,8,bake,,17/02/2015 18:29,2.51623,TRUE
Lidl,3012,FR,235,14001,47.79327,Lidl_FR_3012_14001,,18,Lieudit Le Coulmier,https://spatial.virtualearth.net/REST/v1/data/717c7792c09a4aa4a53bb789c6bb94ee/Filialdaten-FR/Filialdaten-FR?spatialFilter=nearby(48.8569297790527342.3412001132965091000)&$filter=Adresstyp%20Eq%201&$top=1000&$format=json&key=AgC167Ojch2BCIEvqkvyrhl-yLiZLv6nCK_p0K1wyilYx4lcOnTjm6ud60JnqQAa,Lidl_FR_3012,BONNEE,45460,,lun-sam 8h30-19h30,,FR,1,1,8,bake,,17/02/2015 18:29,2.38023,TRUE
Lidl,1731,FR,241,14001,49.57035,Lidl_FR_1731_14001,,25,26 rue Fernand Christ,https://spatial.virtualearth.net/REST/v1/data/717c7792c09a4aa4a53bb789c6bb94ee/Filialdaten-FR/Filialdaten-FR?spatialFilter=nearby(48.8569297790527342.3412001132965091000)&$filter=Adresstyp%20Eq%201&$top=1000&$format=json&key=AgC167Ojch2BCIEvqkvyrhl-yLiZLv6nCK_p0K1wyilYx4lcOnTjm6ud60JnqQAa,Lidl_FR_1731,LAON,2000,,lun-ven 8h30-19h30 /  sam 8h30-19h,,FR,1,1,8,bake,,17/02/2015 18:29,3.60768,TRUE
Lidl,464,FR,242,14001,49.58046,Lidl_FR_464_14001,,25,130 avenue Pierre Mendès France,https://spatial.virtualearth.net/REST/v1/data/717c7792c09a4aa4a53bb789c6bb94ee/Filialdaten-FR/Filialdaten-FR?spatialFilter=nearby(48.8569297790527342.3412001132965091000)&$filter=Adresstyp%20Eq%201&$top=1000&$format=json&key=AgC167Ojch2BCIEvqkvyrhl-yLiZLv6nCK_p0K1wyilYx4lcOnTjm6ud60JnqQAa,Lidl_FR_464,LAON,2000,,lun-ven 8h30-19h30 /  sam 8h30-19h,,FR,1,1,8,,,17/02/2015 18:29,3.64378,TRUE
Lidl,1306,FR,243,14001,47.97877,Lidl_FR_1306_14001,,19,Rue des Entrepreneurs,https://spatial.virtualearth.net/REST/v1/data/717c7792c09a4aa4a53bb789c6bb94ee/Filialdaten-FR/Filialdaten-FR?spatialFilter=nearby(48.8569297790527342.3412001132965091000)&$filter=Adresstyp%20Eq%201&$top=1000&$format=json&key=AgC167Ojch2BCIEvqkvyrhl-yLiZLv6nCK_p0K1wyilYx4lcOnTjm6ud60JnqQAa,Lidl_FR_1306,JOIGNY,89300,,lun-sam 8h30-19h30,,FR,1,1,8,,,17/02/2015 18:29,3.38162,TRUE
Lidl,1975,FR,245,14001,48.76092,Lidl_FR_1975_14001,,11,Route de Paris - RN 26,https://spatial.virtualearth.net/REST/v1/data/717c7792c09a4aa4a53bb789c6bb94ee/Filialdaten-FR/Filialdaten-FR?spatialFilter=nearby(48.8569297790527342.3412001132965091000)&$filter=Adresstyp%20Eq%201&$top=1000&$format=json&key=AgC167Ojch2BCIEvqkvyrhl-yLiZLv6nCK_p0K1wyilYx4lcOnTjm6ud60JnqQAa,Lidl_FR_1975,ST SULPICE SUR RISLE,61300,,lun-ven : 08:30 - 19:30 sam : 08:30 - 19:00,,FR,1,1,8,,,17/02/2015 18:29,0.64425,TRUE
Lidl,2732,FR,237,14001,49.02569,Lidl_FR_2732_14001,,25,Rue Jean Valentin,https://spatial.virtualearth.net/REST/v1/data/717c7792c09a4aa4a53bb789c6bb94ee/Filialdaten-FR/Filialdaten-FR?spatialFilter=nearby(48.8569297790527342.3412001132965091000)&$filter=Adresstyp%20Eq%201&$top=1000&$format=json&key=AgC167Ojch2BCIEvqkvyrhl-yLiZLv6nCK_p0K1wyilYx4lcOnTjm6ud60JnqQAa,Lidl_FR_2732,EPERNAY,51200,,lun-ven 8h30-19h30 /  sam 8h30-19h,,FR,1,1,8,bake,,17/02/2015 18:29,3.95234,TRUE
Lidl,635,FR,239,14001,49.51119,Lidl_FR_635_14001,,11,161 rue du Général de Gaulle,https://spatial.virtualearth.net/REST/v1/data/717c7792c09a4aa4a53bb789c6bb94ee/Filialdaten-FR/Filialdaten-FR?spatialFilter=nearby(48.8569297790527342.3412001132965091000)&$filter=Adresstyp%20Eq%201&$top=1000&$format=json&key=AgC167Ojch2BCIEvqkvyrhl-yLiZLv6nCK_p0K1wyilYx4lcOnTjm6ud60JnqQAa,Lidl_FR_635,LE HOULME,76770,,lun-ven : 08:30 - 19:30 sam : 08:30 - 19:00,,FR,1,1,8,bake,,17/02/2015 18:29,1.03823,TRUE
Lidl,1962,FR,240,14001,49.63316,Lidl_FR_1962_14001,,11,Rue Jeanne la Lorraine,https://spatial.virtualearth.net/REST/v1/data/717c7792c09a4aa4a53bb789c6bb94ee/Filialdaten-FR/Filialdaten-FR?spatialFilter=nearby(48.8569297790527342.3412001132965091000)&$filter=Adresstyp%20Eq%201&$top=1000&$format=json&key=AgC167Ojch2BCIEvqkvyrhl-yLiZLv6nCK_p0K1wyilYx4lcOnTjm6ud60JnqQAa,Lidl_FR_1962,BOSC LE HARD,76850,,lun-ven : 08:30 - 19:30 sam : 08:30 - 19:00,,FR,1,1,8,bake,,17/02/2015 18:29,1.17357,TRUE
Lidl,422,FR,226,14001,49.87671,Lidl_FR_422_14001,,25,1 rue Raymond Gourdain,https://spatial.virtualearth.net/REST/v1/data/717c7792c09a4aa4a53bb789c6bb94ee/Filialdaten-FR/Filialdaten-FR?spatialFilter=nearby(48.8569297790527342.3412001132965091000)&$filter=Adresstyp%20Eq%201&$top=1000&$format=json&key=AgC167Ojch2BCIEvqkvyrhl-yLiZLv6nCK_p0K1wyilYx4lcOnTjm6ud60JnqQAa,Lidl_FR_422,AMIENS,80000,,lun-ven 8h30-19h30 /  sam 8h30-19h,,FR,1,1,8,bake,,17/02/2015 18:29,2.33147,TRUE
Lidl,3209,FR,227,14001,48.06383,Lidl_FR_3209_14001,,18,Lieudit Nermont,https://spatial.virtualearth.net/REST/v1/data/717c7792c09a4aa4a53bb789c6bb94ee/Filialdaten-FR/Filialdaten-FR?spatialFilter=nearby(48.8569297790527342.3412001132965091000)&$filter=Adresstyp%20Eq%201&$top=1000&$format=json&key=AgC167Ojch2BCIEvqkvyrhl-yLiZLv6nCK_p0K1wyilYx4lcOnTjm6ud60JnqQAa,Lidl_FR_3209,LA CHAPELLE DU NOYER,28200,,lun-sam 8h30-19h30,,FR,1,1,8,bake,,17/02/2015 18:29,1.33252,TRUE
Lidl,435,FR,230,14001,49.90372,Lidl_FR_435_14001,,25,284 rue du Faubourg de Hem,https://spatial.virtualearth.net/REST/v1/data/717c7792c09a4aa4a53bb789c6bb94ee/Filialdaten-FR/Filialdaten-FR?spatialFilter=nearby(48.8569297790527342.3412001132965091000)&$filter=Adresstyp%20Eq%201&$top=1000&$format=json&key=AgC167Ojch2BCIEvqkvyrhl-yLiZLv6nCK_p0K1wyilYx4lcOnTjm6ud60JnqQAa,Lidl_FR_435,AMIENS,80000,,lun-ven 8h30-19h30 /  sam 8h30-19h,,FR,1,1,8,,,17/02/2015 18:29,2.27401,TRUE
Lidl,345,FR,250,14001,49.22201,Lidl_FR_345_14001,,25,Avenue du Maréchal Juin,https://spatial.virtualearth.net/REST/v1/data/717c7792c09a4aa4a53bb789c6bb94ee/Filialdaten-FR/Filialdaten-FR?spatialFilter=nearby(48.8569297790527342.3412001132965091000)&$filter=Adresstyp%20Eq%201&$top=1000&$format=json&key=AgC167Ojch2BCIEvqkvyrhl-yLiZLv6nCK_p0K1wyilYx4lcOnTjm6ud60JnqQAa,Lidl_FR_345,REIMS MURIGNY,51100,,lun-ven 8h30-19h30 sam 8h30-19h,,FR,1,1,8,bake,,17/02/2015 18:29,4.01653,TRUE
Lidl,3011,FR,18,14001,48.8102,Lidl_FR_3011_14001,,10,74 avenue Marx Dormoy,https://spatial.virtualearth.net/REST/v1/data/717c7792c09a4aa4a53bb789c6bb94ee/Filialdaten-FR/Filialdaten-FR?spatialFilter=nearby(48.8569297790527342.3412001132965091000)&$filter=Adresstyp%20Eq%201&$top=1000&$format=json&key=AgC167Ojch2BCIEvqkvyrhl-yLiZLv6nCK_p0K1wyilYx4lcOnTjm6ud60JnqQAa,Lidl_FR_3011,MONTROUGE,92120,,lun-sam : 08:30 - 20:00,,FR,1,1,8,bake,,17/02/2015 18:29,2.31818,TRUE
Lidl,1482,FR,19,14001,48.899,Lidl_FR_1482_14001,,10,55 rue Raspail,https://spatial.virtualearth.net/REST/v1/data/717c7792c09a4aa4a53bb789c6bb94ee/Filialdaten-FR/Filialdaten-FR?spatialFilter=nearby(48.8569297790527342.3412001132965091000)&$filter=Adresstyp%20Eq%201&$top=1000&$format=json&key=AgC167Ojch2BCIEvqkvyrhl-yLiZLv6nCK_p0K1wyilYx4lcOnTjm6ud60JnqQAa,Lidl_FR_1482,LEVALLOIS PERRET,92300,,lun-sam : 09:00 - 20:00,,FR,1,1,8,,,17/02/2015 18:29,2.28963,TRUE
Lidl,1844,FR,21,14001,48.83846,Lidl_FR_1844_14001,,10,205-207 avenue de Versailles,https://spatial.virtualearth.net/REST/v1/data/717c7792c09a4aa4a53bb789c6bb94ee/Filialdaten-FR/Filialdaten-FR?spatialFilter=nearby(48.8569297790527342.3412001132965091000)&$filter=Adresstyp%20Eq%201&$top=1000&$format=json&key=AgC167Ojch2BCIEvqkvyrhl-yLiZLv6nCK_p0K1wyilYx4lcOnTjm6ud60JnqQAa,Lidl_FR_1844,PARIS,75016,,lun-sam : 08:30- 20:30,,FR,1,1,8,,,17/02/2015 18:29,2.25981,TRUE
Lidl,1301,FR,22,14001,48.9098,Lidl_FR_1301_14001,,6,122 avenue du Général Leclerc,https://spatial.virtualearth.net/REST/v1/data/717c7792c09a4aa4a53bb789c6bb94ee/Filialdaten-FR/Filialdaten-FR?spatialFilter=nearby(48.8569297790527342.3412001132965091000)&$filter=Adresstyp%20Eq%201&$top=1000&$format=json&key=AgC167Ojch2BCIEvqkvyrhl-yLiZLv6nCK_p0K1wyilYx4lcOnTjm6ud60JnqQAa,Lidl_FR_1301,CLICHY,92110,,lun-sam 9h-20h,,FR,1,1,8,,,17/02/2015 18:29,2.30685,TRUE
Lidl,3215,FR,24,14001,48.80579,Lidl_FR_3215_14001,,10,54 avenue de Paris,https://spatial.virtualearth.net/REST/v1/data/717c7792c09a4aa4a53bb789c6bb94ee/Filialdaten-FR/Filialdaten-FR?spatialFilter=nearby(48.8569297790527342.3412001132965091000)&$filter=Adresstyp%20Eq%201&$top=1000&$format=json&key=AgC167Ojch2BCIEvqkvyrhl-yLiZLv6nCK_p0K1wyilYx4lcOnTjm6ud60JnqQAa,Lidl_FR_3215,CHATILLON,92320,,lun-sam : 08:30 - 20:00,,FR,1,1,8,,,17/02/2015 18:29,2.29196,TRUE
Lidl,1062,FR,25,14001,48.88098,Lidl_FR_1062_14001,,10,C.C. Henri Dunant - 56 Boulevard du Général Leclerc,https://spatial.virtualearth.net/REST/v1/data/717c7792c09a4aa4a53bb789c6bb94ee/Filialdaten-FR/Filialdaten-FR?spatialFilter=nearby(48.8569297790527342.3412001132965091000)&$filter=Adresstyp%20Eq%201&$top=1000&$format=json&key=AgC167Ojch2BCIEvqkvyrhl-yLiZLv6nCK_p0K1wyilYx4lcOnTjm6ud60JnqQAa,Lidl_FR_1062,LES LILAS,93260,,lun-ven : 09:30 - 20:00 sam : 09:30 - 19:00,,FR,1,1,8,bake,,17/02/2015 18:29,2.42597,TRUE
Lidl,1307,FR,27,14001,48.91667,Lidl_FR_1307_14001,,26,44 rue des Grésillons,https://spatial.virtualearth.net/REST/v1/data/717c7792c09a4aa4a53bb789c6bb94ee/Filialdaten-FR/Filialdaten-FR?spatialFilter=nearby(48.8569297790527342.3412001132965091000)&$filter=Adresstyp%20Eq%201&$top=1000&$format=json&key=AgC167Ojch2BCIEvqkvyrhl-yLiZLv6nCK_p0K1wyilYx4lcOnTjm6ud60JnqQAa,Lidl_FR_1307,ASNIERES SUR SEINE,92600,,lun-sam: 08:30-20:00,,FR,1,1,8,,,17/02/2015 18:29,2.30583,TRUE
Lidl,2320,FR,1,14001,48.87008,Lidl_FR_2320_14001,,10,8 boulevard de Strasbourg/17-19 rue du Faubourg St Martin,https://spatial.virtualearth.net/REST/v1/data/717c7792c09a4aa4a53bb789c6bb94ee/Filialdaten-FR/Filialdaten-FR?spatialFilter=nearby(48.8569297790527342.3412001132965091000)&$filter=Adresstyp%20Eq%201&$top=1000&$format=json&key=AgC167Ojch2BCIEvqkvyrhl-yLiZLv6nCK_p0K1wyilYx4lcOnTjm6ud60JnqQAa,Lidl_FR_2320,PARIS,75010,,lun-sam : 08:00 - 21:00,,FR,1,1,8,bake,,17/02/2015 18:29,2.35505,TRUE
Lidl,1620,FR,2,14001,48.86396,Lidl_FR_1620_14001,,10,83 Rue Saint Maur,https://spatial.virtualearth.net/REST/v1/data/717c7792c09a4aa4a53bb789c6bb94ee/Filialdaten-FR/Filialdaten-FR?spatialFilter=nearby(48.8569297790527342.3412001132965091000)&$filter=Adresstyp%20Eq%201&$top=1000&$format=json&key=AgC167Ojch2BCIEvqkvyrhl-yLiZLv6nCK_p0K1wyilYx4lcOnTjm6ud60JnqQAa,Lidl_FR_1620,PARIS,75011,,lun-sam : 08:30 - 20:00,,FR,1,1,8,,,17/02/2015 18:29,2.37836,TRUE
Lidl,2629,FR,3,14001,48.87578,Lidl_FR_2629_14001,,10,boulevard de la Villette 53/55,https://spatial.virtualearth.net/REST/v1/data/717c7792c09a4aa4a53bb789c6bb94ee/Filialdaten-FR/Filialdaten-FR?spatialFilter=nearby(48.8569297790527342.3412001132965091000)&$filter=Adresstyp%20Eq%201&$top=1000&$format=json&key=AgC167Ojch2BCIEvqkvyrhl-yLiZLv6nCK_p0K1wyilYx4lcOnTjm6ud60JnqQAa,Lidl_FR_2629,Paris,75010,,lun-sam : 08:00 - 21:00,,FR,1,1,8,,,17/02/2015 18:29,2.3723,TRUE
Lidl,1071,FR,15,14001,48.81918,Lidl_FR_1071_14001,,10,13 Avenue Pierre Semard,https://spatial.virtualearth.net/REST/v1/data/717c7792c09a4aa4a53bb789c6bb94ee/Filialdaten-FR/Filialdaten-FR?spatialFilter=nearby(48.8569297790527342.3412001132965091000)&$filter=Adresstyp%20Eq%201&$top=1000&$format=json&key=AgC167Ojch2BCIEvqkvyrhl-yLiZLv6nCK_p0K1wyilYx4lcOnTjm6ud60JnqQAa,Lidl_FR_1071,IVRY SUR SEINE,94200,,lun-sam : 08:30 - 20:00,,FR,1,1,8,bake,,17/02/2015 18:29,2.38018,TRUE
Lidl,1491,FR,16,14001,48.90132,Lidl_FR_1491_14001,,10,101-103 boulevard Victor Hugo,https://spatial.virtualearth.net/REST/v1/data/717c7792c09a4aa4a53bb789c6bb94ee/Filialdaten-FR/Filialdaten-FR?spatialFilter=nearby(48.8569297790527342.3412001132965091000)&$filter=Adresstyp%20Eq%201&$top=1000&$format=json&key=AgC167Ojch2BCIEvqkvyrhl-yLiZLv6nCK_p0K1wyilYx4lcOnTjm6ud60JnqQAa,Lidl_FR_1491,CLICHY,92110,,lun-sam : 09:00 - 20:00,,FR,1,1,8,,,17/02/2015 18:29,2.31655,TRUE
Lidl,3257,FR,11,14001,48.89762,Lidl_FR_3257_14001,,10,47 rue Belliard,https://spatial.virtualearth.net/REST/v1/data/717c7792c09a4aa4a53bb789c6bb94ee/Filialdaten-FR/Filialdaten-FR?spatialFilter=nearby(48.8569297790527342.3412001132965091000)&$filter=Adresstyp%20Eq%201&$top=1000&$format=json&key=AgC167Ojch2BCIEvqkvyrhl-yLiZLv6nCK_p0K1wyilYx4lcOnTjm6ud60JnqQAa,Lidl_FR_3257,PARIS,,,lun-sam : 08:30 - 20:30,,FR,1,1,8,,,17/02/2015 18:29,2.34612,TRUE
Lidl,1077,FR,12,14001,48.85332,Lidl_FR_1077_14001,,10,73 Rue des Pyrénées,https://spatial.virtualearth.net/REST/v1/data/717c7792c09a4aa4a53bb789c6bb94ee/Filialdaten-FR/Filialdaten-FR?spatialFilter=nearby(48.8569297790527342.3412001132965091000)&$filter=Adresstyp%20Eq%201&$top=1000&$format=json&key=AgC167Ojch2BCIEvqkvyrhl-yLiZLv6nCK_p0K1wyilYx4lcOnTjm6ud60JnqQAa,Lidl_FR_1077,PARIS,75020,,lun-sam : 09:00 - 20:00,,FR,1,1,8,,,17/02/2015 18:29,2.40567,TRUE
Lidl,2687,FR,7,14001,48.82291,Lidl_FR_2687_14001,,10,90 boulevard Jourdan,https://spatial.virtualearth.net/REST/v1/data/717c7792c09a4aa4a53bb789c6bb94ee/Filialdaten-FR/Filialdaten-FR?spatialFilter=nearby(48.8569297790527342.3412001132965091000)&$filter=Adresstyp%20Eq%201&$top=1000&$format=json&key=AgC167Ojch2BCIEvqkvyrhl-yLiZLv6nCK_p0K1wyilYx4lcOnTjm6ud60JnqQAa,Lidl_FR_2687,PARIS,75014,,lun-sam : 08:30 - 20:00,,FR,1,1,8,,,17/02/2015 18:29,2.32775,TRUE
Lidl,3015,FR,29,14001,48.84266,Lidl_FR_3015_14001,,10,9 rue Dailly,https://spatial.virtualearth.net/REST/v1/data/717c7792c09a4aa4a53bb789c6bb94ee/Filialdaten-FR/Filialdaten-FR?spatialFilter=nearby(48.8569297790527342.3412001132965091000)&$filter=Adresstyp%20Eq%201&$top=1000&$format=json&key=AgC167Ojch2BCIEvqkvyrhl-yLiZLv6nCK_p0K1wyilYx4lcOnTjm6ud60JnqQAa,Lidl_FR_3015,SAINT CLOUD,,,lun-sam : 08:30 - 20:30,,FR,1,1,8,,,17/02/2015 18:29,2.22096,TRUE
Lidl,3246,FR,58,14001,48.96542,Lidl_FR_3246_14001,,26,41 boulevard Gabriel Péri,https://spatial.virtualearth.net/REST/v1/data/717c7792c09a4aa4a53bb789c6bb94ee/Filialdaten-FR/Filialdaten-FR?spatialFilter=nearby(48.8569297790527342.3412001132965091000)&$filter=Adresstyp%20Eq%201&$top=1000&$format=json&key=AgC167Ojch2BCIEvqkvyrhl-yLiZLv6nCK_p0K1wyilYx4lcOnTjm6ud60JnqQAa,Lidl_FR_3246,SANNOIS,95110,,lun-sam : 08:30-20:00,,FR,1,1,8,bake,,17/02/2015 18:29,2.26205,TRUE
Lidl,2863,FR,59,14001,48.97866,Lidl_FR_2863_14001,,26,211 avenue de la Division Leclerc,https://spatial.virtualearth.net/REST/v1/data/717c7792c09a4aa4a53bb789c6bb94ee/Filialdaten-FR/Filialdaten-FR?spatialFilter=nearby(48.8569297790527342.3412001132965091000)&$filter=Adresstyp%20Eq%201&$top=1000&$format=json&key=AgC167Ojch2BCIEvqkvyrhl-yLiZLv6nCK_p0K1wyilYx4lcOnTjm6ud60JnqQAa,Lidl_FR_2863,ENGHIEN LES BAINS,95880,,lun-sam 8h30-19h30,,FR,1,1,8,,,17/02/2015 18:29,2.30489,TRUE
Lidl,665,FR,61,14001,48.91142,Lidl_FR_665_14001,,6,20-26 boulevard Jean Moulin,https://spatial.virtualearth.net/REST/v1/data/717c7792c09a4aa4a53bb789c6bb94ee/Filialdaten-FR/Filialdaten-FR?spatialFilter=nearby(48.8569297790527342.3412001132965091000)&$filter=Adresstyp%20Eq%201&$top=1000&$format=json&key=AgC167Ojch2BCIEvqkvyrhl-yLiZLv6nCK_p0K1wyilYx4lcOnTjm6ud60JnqQAa,Lidl_FR_665,LIVRY GARGAN,93190,,lun-sam 08:30-20:00 dim 09:00-12:00,,FR,1,1,8,bake,,17/02/2015 18:29,2.51415,TRUE
Lidl,2690,FR,42,14001,48.88717,Lidl_FR_2690_14001,,26,73 rue Sadi Carnot,https://spatial.virtualearth.net/REST/v1/data/717c7792c09a4aa4a53bb789c6bb94ee/Filialdaten-FR/Filialdaten-FR?spatialFilter=nearby(48.8569297790527342.3412001132965091000)&$filter=Adresstyp%20Eq%201&$top=1000&$format=json&key=AgC167Ojch2BCIEvqkvyrhl-yLiZLv6nCK_p0K1wyilYx4lcOnTjm6ud60JnqQAa,Lidl_FR_2690,NANTERRE,92000,,lun-sam 9h-19h30,,FR,1,1,8,,,17/02/2015 18:29,2.20819,TRUE
Lidl,2405,FR,44,14001,48.77614,Lidl_FR_2405_14001,,19,Avenue d'Alfortville,https://spatial.virtualearth.net/REST/v1/data/717c7792c09a4aa4a53bb789c6bb94ee/Filialdaten-FR/Filialdaten-FR?spatialFilter=nearby(48.8569297790527342.3412001132965091000)&$filter=Adresstyp%20Eq%201&$top=1000&$format=json&key=AgC167Ojch2BCIEvqkvyrhl-yLiZLv6nCK_p0K1wyilYx4lcOnTjm6ud60JnqQAa,Lidl_FR_2405,CHOISY LE ROI,94600,,lun-sam 08:30-20:30,,FR,1,1,8,,,17/02/2015 18:29,2.41649,TRUE
Lidl,2683,FR,46,14001,48.88463,Lidl_FR_2683_14001,,6,95 boulevard d'Alsace Lorraine,https://spatial.virtualearth.net/REST/v1/data/717c7792c09a4aa4a53bb789c6bb94ee/Filialdaten-FR/Filialdaten-FR?spatialFilter=nearby(48.8569297790527342.3412001132965091000)&$filter=Adresstyp%20Eq%201&$top=1000&$format=json&key=AgC167Ojch2BCIEvqkvyrhl-yLiZLv6nCK_p0K1wyilYx4lcOnTjm6ud60JnqQAa,Lidl_FR_2683,ROSNY SOUS BOIS,93110,,lun-sam 8h30-20h,,FR,1,1,8,bake,,17/02/2015 18:29,2.48422,TRUE
Lidl,1617,FR,53,14001,48.92686,Lidl_FR_1617_14001,,6,87/95 Avenue Paul Vaillant Couturier,https://spatial.virtualearth.net/REST/v1/data/717c7792c09a4aa4a53bb789c6bb94ee/Filialdaten-FR/Filialdaten-FR?spatialFilter=nearby(48.8569297790527342.3412001132965091000)&$filter=Adresstyp%20Eq%201&$top=1000&$format=json&key=AgC167Ojch2BCIEvqkvyrhl-yLiZLv6nCK_p0K1wyilYx4lcOnTjm6ud60JnqQAa,Lidl_FR_1617,LE BLANC MESNIL,93150,,lun-sam 8h30-19h30,,FR,1,1,8,,,17/02/2015 18:29,2.47273,TRUE
Lidl,616,FR,54,14001,48.94153,Lidl_FR_616_14001,,26,Boulevard Lénine - ZAC Val Notre-Dame,https://spatial.virtualearth.net/REST/v1/data/717c7792c09a4aa4a53bb789c6bb94ee/Filialdaten-FR/Filialdaten-FR?spatialFilter=nearby(48.8569297790527342.3412001132965091000)&$filter=Adresstyp%20Eq%201&$top=1000&$format=json&key=AgC167Ojch2BCIEvqkvyrhl-yLiZLv6nCK_p0K1wyilYx4lcOnTjm6ud60JnqQAa,Lidl_FR_616,ARGENTEUIL,95100,,lun-sam 8h30-20h,,FR,1,1,8,bake,,17/02/2015 18:29,2.22941,TRUE
Lidl,1084,FR,56,14001,48.77669,Lidl_FR_1084_14001,,19,5 Rue Emmanuel Chabrier,https://spatial.virtualearth.net/REST/v1/data/717c7792c09a4aa4a53bb789c6bb94ee/Filialdaten-FR/Filialdaten-FR?spatialFilter=nearby(48.8569297790527342.3412001132965091000)&$filter=Adresstyp%20Eq%201&$top=1000&$format=json&key=AgC167Ojch2BCIEvqkvyrhl-yLiZLv6nCK_p0K1wyilYx4lcOnTjm6ud60JnqQAa,Lidl_FR_1084,CRETEIL,94000,,lun-sam 8h30-20h,,FR,1,1,8,,,17/02/2015 18:29,2.46345,TRUE
Lidl,1051,FR,63,14001,48.73311,Lidl_FR_1051_14001,,19,Cours de Verdun,https://spatial.virtualearth.net/REST/v1/data/717c7792c09a4aa4a53bb789c6bb94ee/Filialdaten-FR/Filialdaten-FR?spatialFilter=nearby(48.8569297790527342.3412001132965091000)&$filter=Adresstyp%20Eq%201&$top=1000&$format=json&key=AgC167Ojch2BCIEvqkvyrhl-yLiZLv6nCK_p0K1wyilYx4lcOnTjm6ud60JnqQAa,Lidl_FR_1051,VILLENEUVE LE ROI,94290,,magasin fermé jusqu'au 24/02/2015 inclus pour travaux de démolition reconstruction,,FR,1,1,8,,,17/02/2015 18:29,2.40674,TRUE
Lidl,1039,FR,64,14001,48.77458,Lidl_FR_1039_14001,,19,Rue des Amériques - ZAC du Petit Marais,https://spatial.virtualearth.net/REST/v1/data/717c7792c09a4aa4a53bb789c6bb94ee/Filialdaten-FR/Filialdaten-FR?spatialFilter=nearby(48.8569297790527342.3412001132965091000)&$filter=Adresstyp%20Eq%201&$top=1000&$format=json&key=AgC167Ojch2BCIEvqkvyrhl-yLiZLv6nCK_p0K1wyilYx4lcOnTjm6ud60JnqQAa,Lidl_FR_1039,SUCY EN BRIE,94370,,lun-sam 08:30-20:00,,FR,1,1,8,bake,,17/02/2015 18:29,2.49832,TRUE
Lidl,2401,FR,48,14001,48.89474,Lidl_FR_2401_14001,,6,Rue Edouard Vaillant - ZAC de la Remise à Jorelle,https://spatial.virtualearth.net/REST/v1/data/717c7792c09a4aa4a53bb789c6bb94ee/Filialdaten-FR/Filialdaten-FR?spatialFilter=nearby(48.8569297790527342.3412001132965091000)&$filter=Adresstyp%20Eq%201&$top=1000&$format=json&key=AgC167Ojch2BCIEvqkvyrhl-yLiZLv6nCK_p0K1wyilYx4lcOnTjm6ud60JnqQAa,Lidl_FR_2401,BONDY,93140,,lun-sam :08:30-20:00,,FR,1,1,8,,,17/02/2015 18:29,2.48808,TRUE
Lidl,1082,FR,51,14001,48.91373,Lidl_FR_1082_14001,,6,20-26 Avenue Henri Varagnat,https://spatial.virtualearth.net/REST/v1/data/717c7792c09a4aa4a53bb789c6bb94ee/Filialdaten-FR/Filialdaten-FR?spatialFilter=nearby(48.8569297790527342.3412001132965091000)&$filter=Adresstyp%20Eq%201&$top=1000&$format=json&key=AgC167Ojch2BCIEvqkvyrhl-yLiZLv6nCK_p0K1wyilYx4lcOnTjm6ud60JnqQAa,Lidl_FR_1082,BONDY,93140,,lun-sam 08:30-20:00 dim 09:00-12:00,,FR,1,1,8,bake,,17/02/2015 18:29,2.48277,TRUE
Lidl,1057,FR,73,14001,48.83405,Lidl_FR_1057_14001,,19,5 Chemin des Prunais - Rue Sancho Pança,https://spatial.virtualearth.net/REST/v1/data/717c7792c09a4aa4a53bb789c6bb94ee/Filialdaten-FR/Filialdaten-FR?spatialFilter=nearby(48.8569297790527342.3412001132965091000)&$filter=Adresstyp%20Eq%201&$top=1000&$format=json&key=AgC167Ojch2BCIEvqkvyrhl-yLiZLv6nCK_p0K1wyilYx4lcOnTjm6ud60JnqQAa,Lidl_FR_1057,VILLIERS SUR MARNE,94350,,lun-sam 08:00-20:30,,FR,1,1,8,,,17/02/2015 18:29,2.54811,TRUE
Lidl,1042,FR,75,14001,48.73019,Lidl_FR_1042_14001,,26,ZAC du Pileu - Rue Lavoisier,https://spatial.virtualearth.net/REST/v1/data/717c7792c09a4aa4a53bb789c6bb94ee/Filialdaten-FR/Filialdaten-FR?spatialFilter=nearby(48.8569297790527342.3412001132965091000)&$filter=Adresstyp%20Eq%201&$top=1000&$format=json&key=AgC167Ojch2BCIEvqkvyrhl-yLiZLv6nCK_p0K1wyilYx4lcOnTjm6ud60JnqQAa,Lidl_FR_1042,MASSY,91300,,lun-ven 9h-19h30 sam 9h-19h,,FR,1,1,8,,,17/02/2015 18:29,2.23985,TRUE
Lidl,1367,FR,34,14001,48.91409,Lidl_FR_1367_14001,,6,Route de Stalingrad - ZAC Voltaire,https://spatial.virtualearth.net/REST/v1/data/717c7792c09a4aa4a53bb789c6bb94ee/Filialdaten-FR/Filialdaten-FR?spatialFilter=nearby(48.8569297790527342.3412001132965091000)&$filter=Adresstyp%20Eq%201&$top=1000&$format=json&key=AgC167Ojch2BCIEvqkvyrhl-yLiZLv6nCK_p0K1wyilYx4lcOnTjm6ud60JnqQAa,Lidl_FR_1367,DRANCY,93700,,lun-sam: 08:30-20:00,,FR,1,1,8,,,17/02/2015 18:29,2.43439,TRUE
Lidl,3408,FR,36,14001,48.87073,Lidl_FR_3408_14001,,6,284 rue de Rosny,https://spatial.virtualearth.net/REST/v1/data/717c7792c09a4aa4a53bb789c6bb94ee/Filialdaten-FR/Filialdaten-FR?spatialFilter=nearby(48.8569297790527342.3412001132965091000)&$filter=Adresstyp%20Eq%201&$top=1000&$format=json&key=AgC167Ojch2BCIEvqkvyrhl-yLiZLv6nCK_p0K1wyilYx4lcOnTjm6ud60JnqQAa,Lidl_FR_3408,MONTREUIL,93100,,lun-sam 08:30-20:00,,FR,1,1,8,,,17/02/2015 18:29,2.46824,TRUE
Lidl,1053,FR,66,14001,48.8161,Lidl_FR_1053_14001,,19,Rue de Bernau - ZAC des Nations,https://spatial.virtualearth.net/REST/v1/data/717c7792c09a4aa4a53bb789c6bb94ee/Filialdaten-FR/Filialdaten-FR?spatialFilter=nearby(48.8569297790527342.3412001132965091000)&$filter=Adresstyp%20Eq%201&$top=1000&$format=json&key=AgC167Ojch2BCIEvqkvyrhl-yLiZLv6nCK_p0K1wyilYx4lcOnTjm6ud60JnqQAa,Lidl_FR_1053,CHAMPIGNY SUR MARNE,94500,,lun-sam 8h30-20h,,FR,1,1,8,bake,,17/02/2015 18:29,2.53324,TRUE
Lidl,2315,FR,39,14001,48.82526,Lidl_FR_2315_14001,,10,38 grande rue,https://spatial.virtualearth.net/REST/v1/data/717c7792c09a4aa4a53bb789c6bb94ee/Filialdaten-FR/Filialdaten-FR?spatialFilter=nearby(48.8569297790527342.3412001132965091000)&$filter=Adresstyp%20Eq%201&$top=1000&$format=json&key=AgC167Ojch2BCIEvqkvyrhl-yLiZLv6nCK_p0K1wyilYx4lcOnTjm6ud60JnqQAa,Lidl_FR_2315,SEVRES,92310,,lun-sam : 09:30 - 20:00,,FR,1,1,8,,,17/02/2015 18:29,2.2154,TRUE
Lidl,2872,FR,76,14001,49.00079,Lidl_FR_2872_14001,,26,6 avenue des Erables,https://spatial.virtualearth.net/REST/v1/data/717c7792c09a4aa4a53bb789c6bb94ee/Filialdaten-FR/Filialdaten-FR?spatialFilter=nearby(48.8569297790527342.3412001132965091000)&$filter=Adresstyp%20Eq%201&$top=1000&$format=json&key=AgC167Ojch2BCIEvqkvyrhl-yLiZLv6nCK_p0K1wyilYx4lcOnTjm6ud60JnqQAa,Lidl_FR_2872,VILLIERS LE BEL,95400,,lun-sam 8h30-20h,,FR,1,1,8,bake,,17/02/2015 18:29,2.39025,TRUE
Lidl,1088,FR,78,14001,48.70778,Lidl_FR_1088_14001,,19,Avenue foucher de careil,https://spatial.virtualearth.net/REST/v1/data/717c7792c09a4aa4a53bb789c6bb94ee/Filialdaten-FR/Filialdaten-FR?spatialFilter=nearby(48.8569297790527342.3412001132965091000)&$filter=Adresstyp%20Eq%201&$top=1000&$format=json&key=AgC167Ojch2BCIEvqkvyrhl-yLiZLv6nCK_p0K1wyilYx4lcOnTjm6ud60JnqQAa,Lidl_FR_1088,ATHIS MONS,91200,,lun-sam 8h30-20h,,FR,1,1,8,,,17/02/2015 18:29,2.37221,TRUE
Lidl,3204,FR,79,14001,48.70542,Lidl_FR_3204_14001,,10,81 avenue Charles De Gaulle,https://spatial.virtualearth.net/REST/v1/data/717c7792c09a4aa4a53bb789c6bb94ee/Filialdaten-FR/Filialdaten-FR?spatialFilter=nearby(48.8569297790527342.3412001132965091000)&$filter=Adresstyp%20Eq%201&$top=1000&$format=json&key=AgC167Ojch2BCIEvqkvyrhl-yLiZLv6nCK_p0K1wyilYx4lcOnTjm6ud60JnqQAa,Lidl_FR_3204,MORANGIS,91420,,lun-sam 08:00-20:30 dim 09:00-12:30,,FR,1,1,8,bake,,17/02/2015 18:29,2.34502,TRUE
Lidl,603,FR,80,14001,48.94302,Lidl_FR_603_14001,,6,3 Rue Becquerel,https://spatial.virtualearth.net/REST/v1/data/717c7792c09a4aa4a53bb789c6bb94ee/Filialdaten-FR/Filialdaten-FR?spatialFilter=nearby(48.8569297790527342.3412001132965091000)&$filter=Adresstyp%20Eq%201&$top=1000&$format=json&key=AgC167Ojch2BCIEvqkvyrhl-yLiZLv6nCK_p0K1wyilYx4lcOnTjm6ud60JnqQAa,Lidl_FR_603,SEVRAN,93270,,lun-sam 08:30-20:00 dim 09:00-12:00,,FR,1,1,8,bake,,17/02/2015 18:29,2.53138,TRUE
Lidl,3219,FR,116,14001,48.9483,Lidl_FR_3219_14001,,19,17 rue Alexandre Chatrian,https://spatial.virtualearth.net/REST/v1/data/717c7792c09a4aa4a53bb789c6bb94ee/Filialdaten-FR/Filialdaten-FR?spatialFilter=nearby(48.8569297790527342.3412001132965091000)&$filter=Adresstyp%20Eq%201&$top=1000&$format=json&key=AgC167Ojch2BCIEvqkvyrhl-yLiZLv6nCK_p0K1wyilYx4lcOnTjm6ud60JnqQAa,Lidl_FR_3219,CLAYE SOUILLY,77410,,lun-sam 08:30-20:00 dim 09:00-12:30,,FR,1,1,8,bake,,17/02/2015 18:29,2.66846,TRUE
Lidl,1091,FR,118,14001,48.65967,Lidl_FR_1091_14001,,19,Rue Jean-François Millet - Rue Pablo Picasso,https://spatial.virtualearth.net/REST/v1/data/717c7792c09a4aa4a53bb789c6bb94ee/Filialdaten-FR/Filialdaten-FR?spatialFilter=nearby(48.8569297790527342.3412001132965091000)&$filter=Adresstyp%20Eq%201&$top=1000&$format=json&key=AgC167Ojch2BCIEvqkvyrhl-yLiZLv6nCK_p0K1wyilYx4lcOnTjm6ud60JnqQAa,Lidl_FR_1091,COMBS LA VILLE,77380,,lun-sam 8h30-20h,,FR,1,1,8,bake,,17/02/2015 18:29,2.56404,TRUE
Lidl,3013,FR,119,14001,48.6304,Lidl_FR_3013_14001,,10,2 avenue de la Pointe Ringale,https://spatial.virtualearth.net/REST/v1/data/717c7792c09a4aa4a53bb789c6bb94ee/Filialdaten-FR/Filialdaten-FR?spatialFilter=nearby(48.8569297790527342.3412001132965091000)&$filter=Adresstyp%20Eq%201&$top=1000&$format=json&key=AgC167Ojch2BCIEvqkvyrhl-yLiZLv6nCK_p0K1wyilYx4lcOnTjm6ud60JnqQAa,Lidl_FR_3013,ST GERMAIN LES CORBEIL,91250,,lun-sam 8h30-20h,,FR,1,1,8,bake,,17/02/2015 18:29,2.4931,TRUE
Lidl,1318,FR,95,14001,48.6864,Lidl_FR_1318_14001,,19,50 Rue Waldeck Rousseau,https://spatial.virtualearth.net/REST/v1/data/717c7792c09a4aa4a53bb789c6bb94ee/Filialdaten-FR/Filialdaten-FR?spatialFilter=nearby(48.8569297790527342.3412001132965091000)&$filter=Adresstyp%20Eq%201&$top=1000&$format=json&key=AgC167Ojch2BCIEvqkvyrhl-yLiZLv6nCK_p0K1wyilYx4lcOnTjm6ud60JnqQAa,Lidl_FR_1318,DRAVEIL,91210,,lun-sam 08:30-20:00 dim 09:00-12:30,,FR,1,1,8,,,17/02/2015 18:29,2.4345,TRUE
Lidl,629,FR,96,14001,49.02225,Lidl_FR_629_14001,,6,Avenue de la Gare / Chemin de la Vierge,https://spatial.virtualearth.net/REST/v1/data/717c7792c09a4aa4a53bb789c6bb94ee/Filialdaten-FR/Filialdaten-FR?spatialFilter=nearby(48.8569297790527342.3412001132965091000)&$filter=Adresstyp%20Eq%201&$top=1000&$format=json&key=AgC167Ojch2BCIEvqkvyrhl-yLiZLv6nCK_p0K1wyilYx4lcOnTjm6ud60JnqQAa,Lidl_FR_629,GOUSSAINVILLE,95190,,lun-sam 8h30-20h,,FR,1,1,8,bake,,17/02/2015 18:29,2.46455,TRUE
Lidl,2997,FR,99,14001,48.66136,Lidl_FR_2997_14001,,19,6 rue Jean-Pierre Thimbault,https://spatial.virtualearth.net/REST/v1/data/717c7792c09a4aa4a53bb789c6bb94ee/Filialdaten-FR/Filialdaten-FR?spatialFilter=nearby(48.8569297790527342.3412001132965091000)&$filter=Adresstyp%20Eq%201&$top=1000&$format=json&key=AgC167Ojch2BCIEvqkvyrhl-yLiZLv6nCK_p0K1wyilYx4lcOnTjm6ud60JnqQAa,Lidl_FR_2997,MORSANG SUR ORGE,91390,,lun-sam : 08:30-20:00 dim : 09:00-12:30,,FR,1,1,8,bake,,17/02/2015 18:29,2.36071,TRUE
Lidl,1493,FR,105,14001,48.69719,Lidl_FR_1493_14001,,26,Route de l'Abbaye,https://spatial.virtualearth.net/REST/v1/data/717c7792c09a4aa4a53bb789c6bb94ee/Filialdaten-FR/Filialdaten-FR?spatialFilter=nearby(48.8569297790527342.3412001132965091000)&$filter=Adresstyp%20Eq%201&$top=1000&$format=json&key=AgC167Ojch2BCIEvqkvyrhl-yLiZLv6nCK_p0K1wyilYx4lcOnTjm6ud60JnqQAa,Lidl_FR_1493,GIF SUR YVETTE,91190,,lun-ven 8h30-20h sam 8h30-19h30,,FR,1,1,8,,,17/02/2015 18:29,2.12945,TRUE
Lidl,1262,FR,107,14001,48.75605,Lidl_FR_1262_14001,,26,24 Rue aux Fleurs,https://spatial.virtualearth.net/REST/v1/data/717c7792c09a4aa4a53bb789c6bb94ee/Filialdaten-FR/Filialdaten-FR?spatialFilter=nearby(48.8569297790527342.3412001132965091000)&$filter=Adresstyp%20Eq%201&$top=1000&$format=json&key=AgC167Ojch2BCIEvqkvyrhl-yLiZLv6nCK_p0K1wyilYx4lcOnTjm6ud60JnqQAa,Lidl_FR_1262,VOISINS LE BRETONNEUX,78960,,lun-ven 8h30-19h30 sam 8h30-19h,,FR,1,1,8,,,17/02/2015 18:29,2.05316,TRUE
Lidl,1004,FR,108,14001,48.67857,Lidl_FR_1004_14001,,19,ZAC du Clos d'Auchin  - Avenue du Val d'Yerres,https://spatial.virtualearth.net/REST/v1/data/717c7792c09a4aa4a53bb789c6bb94ee/Filialdaten-FR/Filialdaten-FR?spatialFilter=nearby(48.8569297790527342.3412001132965091000)&$filter=Adresstyp%20Eq%201&$top=1000&$format=json&key=AgC167Ojch2BCIEvqkvyrhl-yLiZLv6nCK_p0K1wyilYx4lcOnTjm6ud60JnqQAa,Lidl_FR_1004,BOUSSY SAINT ANTOINE,91800,,lun-sam 8h30-20h,,FR,1,1,8,bake,,17/02/2015 18:29,2.52823,TRUE
Lidl,2865,FR,82,14001,48.79757,Lidl_FR_2865_14001,,19,Avenue Champlain - ZAC de l'hippodrome,https://spatial.virtualearth.net/REST/v1/data/717c7792c09a4aa4a53bb789c6bb94ee/Filialdaten-FR/Filialdaten-FR?spatialFilter=nearby(48.8569297790527342.3412001132965091000)&$filter=Adresstyp%20Eq%201&$top=1000&$format=json&key=AgC167Ojch2BCIEvqkvyrhl-yLiZLv6nCK_p0K1wyilYx4lcOnTjm6ud60JnqQAa,Lidl_FR_2865,CHENNEVIERES SUR MARNE,94430,,lun-sam 8h30-20h,,FR,1,1,8,bake,,17/02/2015 18:29,2.55847,TRUE
Lidl,601,FR,83,14001,48.90066,Lidl_FR_601_14001,,6,1 rue des Perriers,https://spatial.virtualearth.net/REST/v1/data/717c7792c09a4aa4a53bb789c6bb94ee/Filialdaten-FR/Filialdaten-FR?spatialFilter=nearby(48.8569297790527342.3412001132965091000)&$filter=Adresstyp%20Eq%201&$top=1000&$format=json&key=AgC167Ojch2BCIEvqkvyrhl-yLiZLv6nCK_p0K1wyilYx4lcOnTjm6ud60JnqQAa,Lidl_FR_601,MONTFERMEIL,93370,,lun-sam 08:30-20:00 dim 09:00-12:00,,FR,1,1,8,bake,,17/02/2015 18:29,2.5686,TRUE
Lidl,2634,FR,85,14001,48.99589,Lidl_FR_2634_14001,,26,Route de Taverny,https://spatial.virtualearth.net/REST/v1/data/717c7792c09a4aa4a53bb789c6bb94ee/Filialdaten-FR/Filialdaten-FR?spatialFilter=nearby(48.8569297790527342.3412001132965091000)&$filter=Adresstyp%20Eq%201&$top=1000&$format=json&key=AgC167Ojch2BCIEvqkvyrhl-yLiZLv6nCK_p0K1wyilYx4lcOnTjm6ud60JnqQAa,Lidl_FR_2634,FRANCONVILLE,95130,,lun-sam 8h30-19h30,,FR,1,1,8,bake,,17/02/2015 18:29,2.22096,TRUE
Lidl,1318,FR,95,14001,48.6864,Lidl_FR_1318_14001,,19,50 Rue Waldeck Rousseau,https://spatial.virtualearth.net/REST/v1/data/717c7792c09a4aa4a53bb789c6bb94ee/Filialdaten-FR/Filialdaten-FR?spatialFilter=nearby(48.8569297790527342.3412001132965091000)&$filter=Adresstyp%20Eq%201&$top=1000&$format=json&key=AgC167Ojch2BCIEvqkvyrhl-yLiZLv6nCK_p0K1wyilYx4lcOnTjm6ud60JnqQAa,Lidl_FR_1318,DRAVEIL,91210,,lun-sam 08:30-20:00 dim 09:00-12:30,,FR,1,1,8,,,17/02/2015 18:29,2.4345,TRUE
Lidl,1303,FR,151,14001,49.26926,Lidl_FR_1303_14001,,6,1 Rue Jean Jaurès,https://spatial.virtualearth.net/REST/v1/data/717c7792c09a4aa4a53bb789c6bb94ee/Filialdaten-FR/Filialdaten-FR?spatialFilter=nearby(48.8569297790527342.3412001132965091000)&$filter=Adresstyp%20Eq%201&$top=1000&$format=json&key=AgC167Ojch2BCIEvqkvyrhl-yLiZLv6nCK_p0K1wyilYx4lcOnTjm6ud60JnqQAa,Lidl_FR_1303,NOGENT SUR OISE,60180,,lun-sam 8h30-19h30,,FR,1,1,8,,,17/02/2015 18:29,2.4586,TRUE
Lidl,3404,FR,152,14001,48.43981,Lidl_FR_3404_14001,,26,84 avenue du 8 Mai 1945,https://spatial.virtualearth.net/REST/v1/data/717c7792c09a4aa4a53bb789c6bb94ee/Filialdaten-FR/Filialdaten-FR?spatialFilter=nearby(48.8569297790527342.3412001132965091000)&$filter=Adresstyp%20Eq%201&$top=1000&$format=json&key=AgC167Ojch2BCIEvqkvyrhl-yLiZLv6nCK_p0K1wyilYx4lcOnTjm6ud60JnqQAa,Lidl_FR_3404,ETAMPES,91150,,lun-sam 8h30-20h,,FR,1,1,8,,,17/02/2015 18:29,2.15733,TRUE
Lidl,2694,FR,153,14001,49.28492,Lidl_FR_2694_14001,,6,2 rue du Général De Gaulle,https://spatial.virtualearth.net/REST/v1/data/717c7792c09a4aa4a53bb789c6bb94ee/Filialdaten-FR/Filialdaten-FR?spatialFilter=nearby(48.8569297790527342.3412001132965091000)&$filter=Adresstyp%20Eq%201&$top=1000&$format=json&key=AgC167Ojch2BCIEvqkvyrhl-yLiZLv6nCK_p0K1wyilYx4lcOnTjm6ud60JnqQAa,Lidl_FR_2694,VILLERS ST PAUL,60870,,lun-sam 8h30-19h30,,FR,1,1,8,,,17/02/2015 18:29,2.49114,TRUE
Lidl,614,FR,154,14001,48.97636,Lidl_FR_614_14001,,26,Route de Dreux,https://spatial.virtualearth.net/REST/v1/data/717c7792c09a4aa4a53bb789c6bb94ee/Filialdaten-FR/Filialdaten-FR?spatialFilter=nearby(48.8569297790527342.3412001132965091000)&$filter=Adresstyp%20Eq%201&$top=1000&$format=json&key=AgC167Ojch2BCIEvqkvyrhl-yLiZLv6nCK_p0K1wyilYx4lcOnTjm6ud60JnqQAa,Lidl_FR_614,MANTES MAGNANVILLE,78200,,lun-ven 8h30-19h30 sam 8h30-19h,,FR,1,1,8,,,17/02/2015 18:29,1.69481,TRUE
Lidl,3156,FR,155,14001,49.3137,Lidl_FR_3156_14001,,6,ZAC du Bois Noir,https://spatial.virtualearth.net/REST/v1/data/717c7792c09a4aa4a53bb789c6bb94ee/Filialdaten-FR/Filialdaten-FR?spatialFilter=nearby(48.8569297790527342.3412001132965091000)&$filter=Adresstyp%20Eq%201&$top=1000&$format=json&key=AgC167Ojch2BCIEvqkvyrhl-yLiZLv6nCK_p0K1wyilYx4lcOnTjm6ud60JnqQAa,Lidl_FR_3156,BURY,60250,,lun-sam 8h30-19h30,,FR,1,1,8,bake,,17/02/2015 18:29,2.33459,TRUE
Lidl,3219,FR,116,14001,48.9483,Lidl_FR_3219_14001,,19,17 rue Alexandre Chatrian,https://spatial.virtualearth.net/REST/v1/data/717c7792c09a4aa4a53bb789c6bb94ee/Filialdaten-FR/Filialdaten-FR?spatialFilter=nearby(48.8569297790527342.3412001132965091000)&$filter=Adresstyp%20Eq%201&$top=1000&$format=json&key=AgC167Ojch2BCIEvqkvyrhl-yLiZLv6nCK_p0K1wyilYx4lcOnTjm6ud60JnqQAa,Lidl_FR_3219,CLAYE SOUILLY,77410,,lun-sam 08:30-20:00 dim 09:00-12:30,,FR,1,1,8,bake,,17/02/2015 18:29,2.66846,TRUE
Lidl,1091,FR,118,14001,48.65967,Lidl_FR_1091_14001,,19,Rue Jean-François Millet - Rue Pablo Picasso,https://spatial.virtualearth.net/REST/v1/data/717c7792c09a4aa4a53bb789c6bb94ee/Filialdaten-FR/Filialdaten-FR?spatialFilter=nearby(48.8569297790527342.3412001132965091000)&$filter=Adresstyp%20Eq%201&$top=1000&$format=json&key=AgC167Ojch2BCIEvqkvyrhl-yLiZLv6nCK_p0K1wyilYx4lcOnTjm6ud60JnqQAa,Lidl_FR_1091,COMBS LA VILLE,77380,,lun-sam 8h30-20h,,FR,1,1,8,bake,,17/02/2015 18:29,2.56404,TRUE
Lidl,3013,FR,119,14001,48.6304,Lidl_FR_3013_14001,,10,2 avenue de la Pointe Ringale,https://spatial.virtualearth.net/REST/v1/data/717c7792c09a4aa4a53bb789c6bb94ee/Filialdaten-FR/Filialdaten-FR?spatialFilter=nearby(48.8569297790527342.3412001132965091000)&$filter=Adresstyp%20Eq%201&$top=1000&$format=json&key=AgC167Ojch2BCIEvqkvyrhl-yLiZLv6nCK_p0K1wyilYx4lcOnTjm6ud60JnqQAa,Lidl_FR_3013,ST GERMAIN LES CORBEIL,91250,,lun-sam 8h30-20h,,FR,1,1,8,bake,,17/02/2015 18:29,2.4931,TRUE
Lidl,3017,FR,120,14001,48.83046,Lidl_FR_3017_14001,,26,8 rue Paul Langevin,https://spatial.virtualearth.net/REST/v1/data/717c7792c09a4aa4a53bb789c6bb94ee/Filialdaten-FR/Filialdaten-FR?spatialFilter=nearby(48.8569297790527342.3412001132965091000)&$filter=Adresstyp%20Eq%201&$top=1000&$format=json&key=AgC167Ojch2BCIEvqkvyrhl-yLiZLv6nCK_p0K1wyilYx4lcOnTjm6ud60JnqQAa,Lidl_FR_3017,PLAISIR,78370,,lun-sam 8h30-20h,,FR,1,1,8,bake,,17/02/2015 18:29,1.95565,TRUE
Lidl,1017,FR,141,14001,48.52336,Lidl_FR_1017_14001,,19,100 avenue de Fontainebleau,https://spatial.virtualearth.net/REST/v1/data/717c7792c09a4aa4a53bb789c6bb94ee/Filialdaten-FR/Filialdaten-FR?spatialFilter=nearby(48.8569297790527342.3412001132965091000)&$filter=Adresstyp%20Eq%201&$top=1000&$format=json&key=AgC167Ojch2BCIEvqkvyrhl-yLiZLv6nCK_p0K1wyilYx4lcOnTjm6ud60JnqQAa,Lidl_FR_1017,PRINGY,77310,,lun-sam 08:30-20:00 dim 09:00-12:30,,FR,1,1,8,bake,,17/02/2015 18:29,2.5614,TRUE
Lidl,3147,FR,143,14001,49.22338,Lidl_FR_3147_14001,,6,6-12 route de Creil,https://spatial.virtualearth.net/REST/v1/data/717c7792c09a4aa4a53bb789c6bb94ee/Filialdaten-FR/Filialdaten-FR?spatialFilter=nearby(48.8569297790527342.3412001132965091000)&$filter=Adresstyp%20Eq%201&$top=1000&$format=json&key=AgC167Ojch2BCIEvqkvyrhl-yLiZLv6nCK_p0K1wyilYx4lcOnTjm6ud60JnqQAa,Lidl_FR_3147,ST LEU D'ESSERENT,60340,,lun-sam 8h30-19h30,,FR,1,1,8,bake,,17/02/2015 18:29,2.42899,TRUE
Lidl,649,FR,144,14001,48.95349,Lidl_FR_649_14001,,19,46 Avenue du Maréchal Foch,https://spatial.virtualearth.net/REST/v1/data/717c7792c09a4aa4a53bb789c6bb94ee/Filialdaten-FR/Filialdaten-FR?spatialFilter=nearby(48.8569297790527342.3412001132965091000)&$filter=Adresstyp%20Eq%201&$top=1000&$format=json&key=AgC167Ojch2BCIEvqkvyrhl-yLiZLv6nCK_p0K1wyilYx4lcOnTjm6ud60JnqQAa,Lidl_FR_649,MEAUX,77100,,lun-sam 08:30-19:30,,FR,1,1,8,bake,,17/02/2015 18:29,2.89099,TRUE
Lidl,1961,FR,145,14001,48.98774,Lidl_FR_1961_14001,,26,59 route nationale,https://spatial.virtualearth.net/REST/v1/data/717c7792c09a4aa4a53bb789c6bb94ee/Filialdaten-FR/Filialdaten-FR?spatialFilter=nearby(48.8569297790527342.3412001132965091000)&$filter=Adresstyp%20Eq%201&$top=1000&$format=json&key=AgC167Ojch2BCIEvqkvyrhl-yLiZLv6nCK_p0K1wyilYx4lcOnTjm6ud60JnqQAa,Lidl_FR_1961,ISSOU,78440,,lun-ven 8h30-19h30 sam 8h30-19h,,FR,1,1,8,bake,,17/02/2015 18:29,1.79146,TRUE
Lidl,3260,FR,157,14001,49.30729,Lidl_FR_3260_14001,,6,Rue Pasteur,https://spatial.virtualearth.net/REST/v1/data/717c7792c09a4aa4a53bb789c6bb94ee/Filialdaten-FR/Filialdaten-FR?spatialFilter=nearby(48.8569297790527342.3412001132965091000)&$filter=Adresstyp%20Eq%201&$top=1000&$format=json&key=AgC167Ojch2BCIEvqkvyrhl-yLiZLv6nCK_p0K1wyilYx4lcOnTjm6ud60JnqQAa,Lidl_FR_3260,PON SAINTE MAXENCE,60700,,lun-sam 08:30-20:00,,FR,1,1,8,bake,,17/02/2015 18:29,2.59075,TRUE
Lidl,641,FR,158,14001,48.80268,Lidl_FR_641_14001,,19,Boulevard de la Marne,https://spatial.virtualearth.net/REST/v1/data/717c7792c09a4aa4a53bb789c6bb94ee/Filialdaten-FR/Filialdaten-FR?spatialFilter=nearby(48.8569297790527342.3412001132965091000)&$filter=Adresstyp%20Eq%201&$top=1000&$format=json&key=AgC167Ojch2BCIEvqkvyrhl-yLiZLv6nCK_p0K1wyilYx4lcOnTjm6ud60JnqQAa,Lidl_FR_641,COULOMMIERS,77120,,lun-sam 8h30-19h30,,FR,1,1,8,,,17/02/2015 18:29,3.08703,TRUE
Lidl,3202,FR,159,14001,48.42279,Lidl_FR_3202_14001,,19,ZA des Brulis - RD210,https://spatial.virtualearth.net/REST/v1/data/717c7792c09a4aa4a53bb789c6bb94ee/Filialdaten-FR/Filialdaten-FR?spatialFilter=nearby(48.8569297790527342.3412001132965091000)&$filter=Adresstyp%20Eq%201&$top=1000&$format=json&key=AgC167Ojch2BCIEvqkvyrhl-yLiZLv6nCK_p0K1wyilYx4lcOnTjm6ud60JnqQAa,Lidl_FR_3202,SAMOREAU,77210,,lun-sam 8h30-19h30,,FR,1,1,8,bake,,17/02/2015 18:29,2.7731,TRUE
Lidl,632,FR,160,14001,48.94258,Lidl_FR_632_14001,,19,Rue Roosevelt,https://spatial.virtualearth.net/REST/v1/data/717c7792c09a4aa4a53bb789c6bb94ee/Filialdaten-FR/Filialdaten-FR?spatialFilter=nearby(48.8569297790527342.3412001132965091000)&$filter=Adresstyp%20Eq%201&$top=1000&$format=json&key=AgC167Ojch2BCIEvqkvyrhl-yLiZLv6nCK_p0K1wyilYx4lcOnTjm6ud60JnqQAa,Lidl_FR_632,LA FERTE SOUS JOUARRE,77260,,lun-sam 8h30-19h30,,FR,1,1,8,,,17/02/2015 18:29,3.12559,TRUE
Lidl,3152,FR,138,14001,48.56458,Lidl_FR_3152_14001,,10,80 Route Départementale 306,https://spatial.virtualearth.net/REST/v1/data/717c7792c09a4aa4a53bb789c6bb94ee/Filialdaten-FR/Filialdaten-FR?spatialFilter=nearby(48.8569297790527342.3412001132965091000)&$filter=Adresstyp%20Eq%201&$top=1000&$format=json&key=AgC167Ojch2BCIEvqkvyrhl-yLiZLv6nCK_p0K1wyilYx4lcOnTjm6ud60JnqQAa,Lidl_FR_3152,VERT SAINT DENIS,77240,,lun-sam 08:30-20:30 dim 09:00-12:30,,FR,1,1,8,bake,,17/02/2015 18:29,2.63074,TRUE
Lidl,1868,FR,139,14001,49.09513,Lidl_FR_1868_14001,,6,5 rue de la Briqueterie,https://spatial.virtualearth.net/REST/v1/data/717c7792c09a4aa4a53bb789c6bb94ee/Filialdaten-FR/Filialdaten-FR?spatialFilter=nearby(48.8569297790527342.3412001132965091000)&$filter=Adresstyp%20Eq%201&$top=1000&$format=json&key=AgC167Ojch2BCIEvqkvyrhl-yLiZLv6nCK_p0K1wyilYx4lcOnTjm6ud60JnqQAa,Lidl_FR_1868,LAGNY LE SEC,60330,,lun-sam 8h30-19h30,,FR,1,1,8,bake,,17/02/2015 18:29,2.74281,TRUE
Lidl,3259,FR,140,14001,48.93889,Lidl_FR_3259_14001,,19,186 rue Jean Serva,https://spatial.virtualearth.net/REST/v1/data/717c7792c09a4aa4a53bb789c6bb94ee/Filialdaten-FR/Filialdaten-FR?spatialFilter=nearby(48.8569297790527342.3412001132965091000)&$filter=Adresstyp%20Eq%201&$top=1000&$format=json&key=AgC167Ojch2BCIEvqkvyrhl-yLiZLv6nCK_p0K1wyilYx4lcOnTjm6ud60JnqQAa,Lidl_FR_3259,MEAUX,77100,,lun-sam 08:30-20:00 dim 09:00-12:30,,FR,1,1,8,,,17/02/2015 18:29,2.87667,TRUE
Lidl,3020,FR,146,14001,48.48476,Lidl_FR_3020_14001,,10,3 avenue du Pont Royal,https://spatial.virtualearth.net/REST/v1/data/717c7792c09a4aa4a53bb789c6bb94ee/Filialdaten-FR/Filialdaten-FR?spatialFilter=nearby(48.8569297790527342.3412001132965091000)&$filter=Adresstyp%20Eq%201&$top=1000&$format=json&key=AgC167Ojch2BCIEvqkvyrhl-yLiZLv6nCK_p0K1wyilYx4lcOnTjm6ud60JnqQAa,Lidl_FR_3020,ETRECHY,91580,,lun-ven : 08:30 - 20:00 sam : 08:30 - 19:30,,FR,1,1,8,bake,,17/02/2015 18:29,2.19244,TRUE
Lidl,2319,FR,149,14001,48.52859,Lidl_FR_2319_14001,,19,49-51 avenue Thiers,https://spatial.virtualearth.net/REST/v1/data/717c7792c09a4aa4a53bb789c6bb94ee/Filialdaten-FR/Filialdaten-FR?spatialFilter=nearby(48.8569297790527342.3412001132965091000)&$filter=Adresstyp%20Eq%201&$top=1000&$format=json&key=AgC167Ojch2BCIEvqkvyrhl-yLiZLv6nCK_p0K1wyilYx4lcOnTjm6ud60JnqQAa,Lidl_FR_2319,MELUN,77000,,lun-sam: 08:30-20:00,,FR,1,1,8,,,17/02/2015 18:29,2.65451,TRUE
Lidl,1365,FR,133,14001,49.14756,Lidl_FR_1365_14001,,6,24 Boulevard Léon Blum,https://spatial.virtualearth.net/REST/v1/data/717c7792c09a4aa4a53bb789c6bb94ee/Filialdaten-FR/Filialdaten-FR?spatialFilter=nearby(48.8569297790527342.3412001132965091000)&$filter=Adresstyp%20Eq%201&$top=1000&$format=json&key=AgC167Ojch2BCIEvqkvyrhl-yLiZLv6nCK_p0K1wyilYx4lcOnTjm6ud60JnqQAa,Lidl_FR_1365,BEAUMONT SUR OISE,95260,,lun-sam 8h30-19h30,,FR,1,1,8,bake,,17/02/2015 18:29,2.29388,TRUE
Lidl,1853,FR,135,14001,49.16095,Lidl_FR_1853_14001,,6,401 Route de Beaumont,https://spatial.virtualearth.net/REST/v1/data/717c7792c09a4aa4a53bb789c6bb94ee/Filialdaten-FR/Filialdaten-FR?spatialFilter=nearby(48.8569297790527342.3412001132965091000)&$filter=Adresstyp%20Eq%201&$top=1000&$format=json&key=AgC167Ojch2BCIEvqkvyrhl-yLiZLv6nCK_p0K1wyilYx4lcOnTjm6ud60JnqQAa,Lidl_FR_1853,CHAMBLY,60230,,lun-sam 8h30-19h30,,FR,1,1,8,bake,,17/02/2015 18:29,2.25748,TRUE
Lidl,1857,FR,164,14001,48.31565,Lidl_FR_1857_14001,,10,15 route de Paris,https://spatial.virtualearth.net/REST/v1/data/717c7792c09a4aa4a53bb789c6bb94ee/Filialdaten-FR/Filialdaten-FR?spatialFilter=nearby(48.8569297790527342.3412001132965091000)&$filter=Adresstyp%20Eq%201&$top=1000&$format=json&key=AgC167Ojch2BCIEvqkvyrhl-yLiZLv6nCK_p0K1wyilYx4lcOnTjm6ud60JnqQAa,Lidl_FR_1857,ANGERVILLE,91670,,lun-ven : 08:30 - 20:00 sam :  08:30 - 19:30,,FR,1,1,8,bake,,17/02/2015 18:29,2.00501,TRUE
Lidl,1068,FR,122,14001,48.97599,Lidl_FR_1068_14001,,26,Allée des résédas - CC du Parc,https://spatial.virtualearth.net/REST/v1/data/717c7792c09a4aa4a53bb789c6bb94ee/Filialdaten-FR/Filialdaten-FR?spatialFilter=nearby(48.8569297790527342.3412001132965091000)&$filter=Adresstyp%20Eq%201&$top=1000&$format=json&key=AgC167Ojch2BCIEvqkvyrhl-yLiZLv6nCK_p0K1wyilYx4lcOnTjm6ud60JnqQAa,Lidl_FR_1068,VERNOUILLET,78540,,lun-sam 8h30-19h30,,FR,1,1,8,,,17/02/2015 18:29,1.98578,TRUE
Lidl,1514,FR,186,14001,49.30756,Lidl_FR_1514_14001,,11,Lieudit Sente du Moulin - RN 14,https://spatial.virtualearth.net/REST/v1/data/717c7792c09a4aa4a53bb789c6bb94ee/Filialdaten-FR/Filialdaten-FR?spatialFilter=nearby(48.8569297790527342.3412001132965091000)&$filter=Adresstyp%20Eq%201&$top=1000&$format=json&key=AgC167Ojch2BCIEvqkvyrhl-yLiZLv6nCK_p0K1wyilYx4lcOnTjm6ud60JnqQAa,Lidl_FR_1514,ECOUIS,27440,,lun-ven : 08:30 - 19:30 sam : 08:30 - 19:00,,FR,1,1,8,bake,,17/02/2015 18:29,1.43975,TRUE
Lidl,2870,FR,187,14001,49.63942,Lidl_FR_2870_14001,,6,96 rue d'Amiens,https://spatial.virtualearth.net/REST/v1/data/717c7792c09a4aa4a53bb789c6bb94ee/Filialdaten-FR/Filialdaten-FR?spatialFilter=nearby(48.8569297790527342.3412001132965091000)&$filter=Adresstyp%20Eq%201&$top=1000&$format=json&key=AgC167Ojch2BCIEvqkvyrhl-yLiZLv6nCK_p0K1wyilYx4lcOnTjm6ud60JnqQAa,Lidl_FR_2870,BRETEUIL,60120,,lun-sam 8h30-19h,,FR,1,1,8,bake,,17/02/2015 18:29,2.28232,TRUE
Lidl,1978,FR,188,14001,49.00705,Lidl_FR_1978_14001,,11,Boulevard du 14 juillet,https://spatial.virtualearth.net/REST/v1/data/717c7792c09a4aa4a53bb789c6bb94ee/Filialdaten-FR/Filialdaten-FR?spatialFilter=nearby(48.8569297790527342.3412001132965091000)&$filter=Adresstyp%20Eq%201&$top=1000&$format=json&key=AgC167Ojch2BCIEvqkvyrhl-yLiZLv6nCK_p0K1wyilYx4lcOnTjm6ud60JnqQAa,Lidl_FR_1978,EVREUX,27000,,lun-ven : 08:30 - 19:30 sam : 08:30 - 19:00,,FR,1,1,8,bake,,17/02/2015 18:29,1.16478,TRUE
Lidl,2511,FR,189,14001,49.05461,Lidl_FR_2511_14001,,11,Avenue Aristide Briand,https://spatial.virtualearth.net/REST/v1/data/717c7792c09a4aa4a53bb789c6bb94ee/Filialdaten-FR/Filialdaten-FR?spatialFilter=nearby(48.8569297790527342.3412001132965091000)&$filter=Adresstyp%20Eq%201&$top=1000&$format=json&key=AgC167Ojch2BCIEvqkvyrhl-yLiZLv6nCK_p0K1wyilYx4lcOnTjm6ud60JnqQAa,Lidl_FR_2511,GRAVIGNY,27930,,lun-ven : 08:30 - 19:30 sam : 08:30 - 19:00,,FR,1,1,8,,,17/02/2015 18:29,1.16759,TRUE
Lidl,1507,FR,197,14001,49.2158,Lidl_FR_1507_14001,,11,4 Place Ernest Thorel,https://spatial.virtualearth.net/REST/v1/data/717c7792c09a4aa4a53bb789c6bb94ee/Filialdaten-FR/Filialdaten-FR?spatialFilter=nearby(48.8569297790527342.3412001132965091000)&$filter=Adresstyp%20Eq%201&$top=1000&$format=json&key=AgC167Ojch2BCIEvqkvyrhl-yLiZLv6nCK_p0K1wyilYx4lcOnTjm6ud60JnqQAa,Lidl_FR_1507,LOUVIERS,27400,,lun-ven : 08:30 - 19:30 sam : 08:30 - 19:00,,FR,1,1,8,bake,,17/02/2015 18:29,1.16883,TRUE
Lidl,1970,FR,198,14001,49.32436,Lidl_FR_1970_14001,,11,Rue de la Salle,https://spatial.virtualearth.net/REST/v1/data/717c7792c09a4aa4a53bb789c6bb94ee/Filialdaten-FR/Filialdaten-FR?spatialFilter=nearby(48.8569297790527342.3412001132965091000)&$filter=Adresstyp%20Eq%201&$top=1000&$format=json&key=AgC167Ojch2BCIEvqkvyrhl-yLiZLv6nCK_p0K1wyilYx4lcOnTjm6ud60JnqQAa,Lidl_FR_1970,PITRES,27590,,lun-ven : 08:30 - 19:30 sam : 08:30 - 19:00,,FR,1,1,8,bake,,17/02/2015 18:29,1.21871,TRUE
Lidl,463,FR,199,14001,49.68902,Lidl_FR_463_14001,,25,3 route de Paris,https://spatial.virtualearth.net/REST/v1/data/717c7792c09a4aa4a53bb789c6bb94ee/Filialdaten-FR/Filialdaten-FR?spatialFilter=nearby(48.8569297790527342.3412001132965091000)&$filter=Adresstyp%20Eq%201&$top=1000&$format=json&key=AgC167Ojch2BCIEvqkvyrhl-yLiZLv6nCK_p0K1wyilYx4lcOnTjm6ud60JnqQAa,Lidl_FR_463,ROYE,80700,,lun-sam 8h30-19h30,,FR,1,1,8,bake,,17/02/2015 18:29,2.78782,TRUE
Lidl,2696,FR,200,14001,48.21578,Lidl_FR_2696_14001,,19,2 rue de la Gaillarde,https://spatial.virtualearth.net/REST/v1/data/717c7792c09a4aa4a53bb789c6bb94ee/Filialdaten-FR/Filialdaten-FR?spatialFilter=nearby(48.8569297790527342.3412001132965091000)&$filter=Adresstyp%20Eq%201&$top=1000&$format=json&key=AgC167Ojch2BCIEvqkvyrhl-yLiZLv6nCK_p0K1wyilYx4lcOnTjm6ud60JnqQAa,Lidl_FR_2696,SAINT CLEMENT,89100,,lun-sam 8h30-19h30,,FR,1,1,8,bake,,17/02/2015 18:29,3.27913,TRUE
Lidl,1866,FR,171,14001,48.27033,Lidl_FR_1866_14001,,10,18 rue du Clos St Jean,https://spatial.virtualearth.net/REST/v1/data/717c7792c09a4aa4a53bb789c6bb94ee/Filialdaten-FR/Filialdaten-FR?spatialFilter=nearby(48.8569297790527342.3412001132965091000)&$filter=Adresstyp%20Eq%201&$top=1000&$format=json&key=AgC167Ojch2BCIEvqkvyrhl-yLiZLv6nCK_p0K1wyilYx4lcOnTjm6ud60JnqQAa,Lidl_FR_1866,ST PIERRE LES NEMOURS,77140,,lun-ven : 08:30 - 20:00 sam : 08:30 - 19:30,,FR,1,1,8,bake,,17/02/2015 18:29,2.67596,TRUE
Lidl,3145,FR,174,14001,48.71716,Lidl_FR_3145_14001,,26,18 rue de Rome,https://spatial.virtualearth.net/REST/v1/data/717c7792c09a4aa4a53bb789c6bb94ee/Filialdaten-FR/Filialdaten-FR?spatialFilter=nearby(48.8569297790527342.3412001132965091000)&$filter=Adresstyp%20Eq%201&$top=1000&$format=json&key=AgC167Ojch2BCIEvqkvyrhl-yLiZLv6nCK_p0K1wyilYx4lcOnTjm6ud60JnqQAa,Lidl_FR_3145,VERNOUILLET,28500,,lun-ven 8h30-19h30 sam 8h30-19h,,FR,1,1,8,,,17/02/2015 18:29,1.37226,TRUE
Lidl,2313,FR,175,14001,48.35805,Lidl_FR_2313_14001,,19,30 rue Chaude,https://spatial.virtualearth.net/REST/v1/data/717c7792c09a4aa4a53bb789c6bb94ee/Filialdaten-FR/Filialdaten-FR?spatialFilter=nearby(48.8569297790527342.3412001132965091000)&$filter=Adresstyp%20Eq%201&$top=1000&$format=json&key=AgC167Ojch2BCIEvqkvyrhl-yLiZLv6nCK_p0K1wyilYx4lcOnTjm6ud60JnqQAa,Lidl_FR_2313,CANNES ECLUSE,77130,,lun-sam 8h30-20h,,FR,1,1,8,bake,,17/02/2015 18:29,2.98442,TRUE
Lidl,1877,FR,176,14001,49.51563,Lidl_FR_1877_14001,,6,Le Grand Chemin de Plainval,https://spatial.virtualearth.net/REST/v1/data/717c7792c09a4aa4a53bb789c6bb94ee/Filialdaten-FR/Filialdaten-FR?spatialFilter=nearby(48.8569297790527342.3412001132965091000)&$filter=Adresstyp%20Eq%201&$top=1000&$format=json&key=AgC167Ojch2BCIEvqkvyrhl-yLiZLv6nCK_p0K1wyilYx4lcOnTjm6ud60JnqQAa,Lidl_FR_1877,ST JUST EN CHAUSSEE,60130,,lun-sam 8h30-19h30,,FR,1,1,8,bake,,17/02/2015 18:29,2.43868,TRUE
Lidl,2861,FR,177,14001,48.73275,Lidl_FR_2861_14001,,26,Rue Joseph Bulet,https://spatial.virtualearth.net/REST/v1/data/717c7792c09a4aa4a53bb789c6bb94ee/Filialdaten-FR/Filialdaten-FR?spatialFilter=nearby(48.8569297790527342.3412001132965091000)&$filter=Adresstyp%20Eq%201&$top=1000&$format=json&key=AgC167Ojch2BCIEvqkvyrhl-yLiZLv6nCK_p0K1wyilYx4lcOnTjm6ud60JnqQAa,Lidl_FR_2861,VERNOUILLET,28500,,lun-ven 8h30-19h30 sam 8h30-19h,,FR,1,1,8,bake,,17/02/2015 18:29,1.34408,TRUE
Lidl,2621,FR,180,14001,48.45023,Lidl_FR_2621_14001,,26,43 rue du Château d'eau,https://spatial.virtualearth.net/REST/v1/data/717c7792c09a4aa4a53bb789c6bb94ee/Filialdaten-FR/Filialdaten-FR?spatialFilter=nearby(48.8569297790527342.3412001132965091000)&$filter=Adresstyp%20Eq%201&$top=1000&$format=json&key=AgC167Ojch2BCIEvqkvyrhl-yLiZLv6nCK_p0K1wyilYx4lcOnTjm6ud60JnqQAa,Lidl_FR_2621,MAINVILLIERS,28300,,lun-sam 8h30-19h30,,FR,1,1,8,bake,,17/02/2015 18:29,1.45151,TRUE
Lidl,465,FR,208,14001,49.62237,Lidl_FR_465_14001,,25,74 Boulevard de Bergheim,https://spatial.virtualearth.net/REST/v1/data/717c7792c09a4aa4a53bb789c6bb94ee/Filialdaten-FR/Filialdaten-FR?spatialFilter=nearby(48.8569297790527342.3412001132965091000)&$filter=Adresstyp%20Eq%201&$top=1000&$format=json&key=AgC167Ojch2BCIEvqkvyrhl-yLiZLv6nCK_p0K1wyilYx4lcOnTjm6ud60JnqQAa,Lidl_FR_465,CHAUNY,2300,,lun-ven 8h30-19h30 /  sam 8h30-19h,,FR,1,1,8,,,17/02/2015 18:29,3.20642,TRUE
Lidl,623,FR,210,14001,49.39752,Lidl_FR_623_14001,,11,Angle de la rue de Paris et avenue de St. Yon,https://spatial.virtualearth.net/REST/v1/data/717c7792c09a4aa4a53bb789c6bb94ee/Filialdaten-FR/Filialdaten-FR?spatialFilter=nearby(48.8569297790527342.3412001132965091000)&$filter=Adresstyp%20Eq%201&$top=1000&$format=json&key=AgC167Ojch2BCIEvqkvyrhl-yLiZLv6nCK_p0K1wyilYx4lcOnTjm6ud60JnqQAa,Lidl_FR_623,ST ETIENNE DU ROUVRAY,76800,,lun-ven : 08:30 - 19:30 sam : 08:30 - 19:00,,FR,1,1,8,bake,,17/02/2015 18:29,1.10258,TRUE
Lidl,1495,FR,202,14001,48.18802,Lidl_FR_1495_14001,,19,152 Avenue de Sénigallia,https://spatial.virtualearth.net/REST/v1/data/717c7792c09a4aa4a53bb789c6bb94ee/Filialdaten-FR/Filialdaten-FR?spatialFilter=nearby(48.8569297790527342.3412001132965091000)&$filter=Adresstyp%20Eq%201&$top=1000&$format=json&key=AgC167Ojch2BCIEvqkvyrhl-yLiZLv6nCK_p0K1wyilYx4lcOnTjm6ud60JnqQAa,Lidl_FR_1495,SENS,89100,,lun-sam 8h30-19h30,,FR,1,1,8,bake,,17/02/2015 18:29,3.28372,TRUE
Lidl,1965,FR,206,14001,48.73763,Lidl_FR_1965_14001,,11,514 rue Aristide Briand - RN 12,https://spatial.virtualearth.net/REST/v1/data/717c7792c09a4aa4a53bb789c6bb94ee/Filialdaten-FR/Filialdaten-FR?spatialFilter=nearby(48.8569297790527342.3412001132965091000)&$filter=Adresstyp%20Eq%201&$top=1000&$format=json&key=AgC167Ojch2BCIEvqkvyrhl-yLiZLv6nCK_p0K1wyilYx4lcOnTjm6ud60JnqQAa,Lidl_FR_1965,VERNEUIL SUR AVRE,27130,,lun-ven : 08:30 - 19:30 sam : 08:30 - 19:00,,FR,1,1,8,bake,,17/02/2015 18:29,0.93694,TRUE
Lidl,3541,FR,181,14001,49.48174,Lidl_FR_3541_14001,,6,RN 32 Rue du Gros Grelot,https://spatial.virtualearth.net/REST/v1/data/717c7792c09a4aa4a53bb789c6bb94ee/Filialdaten-FR/Filialdaten-FR?spatialFilter=nearby(48.8569297790527342.3412001132965091000)&$filter=Adresstyp%20Eq%201&$top=1000&$format=json&key=AgC167Ojch2BCIEvqkvyrhl-yLiZLv6nCK_p0K1wyilYx4lcOnTjm6ud60JnqQAa,Lidl_FR_3541,THOUROTTE,60150,,lun-sam : 08:30-20:00,,FR,1,1,8,bake,,17/02/2015 18:29,2.87237,TRUE
Lidl,605,FR,185,14001,49.48027,Lidl_FR_605_14001,,11,39 Route Neuve,https://spatial.virtualearth.net/REST/v1/data/717c7792c09a4aa4a53bb789c6bb94ee/Filialdaten-FR/Filialdaten-FR?spatialFilter=nearby(48.8569297790527342.3412001132965091000)&$filter=Adresstyp%20Eq%201&$top=1000&$format=json&key=AgC167Ojch2BCIEvqkvyrhl-yLiZLv6nCK_p0K1wyilYx4lcOnTjm6ud60JnqQAa,Lidl_FR_605,FERRIERES EN BRAY,76220,,lun-ven : 08:30 - 19:30 sam : 08:30 - 19:00,,FR,1,1,8,bake,,17/02/2015 18:29,1.73249,TRUE
Lidl,3242,FR,169,14001,49.39528,Lidl_FR_3242_14001,,6,ZAC Mercières,https://spatial.virtualearth.net/REST/v1/data/717c7792c09a4aa4a53bb789c6bb94ee/Filialdaten-FR/Filialdaten-FR?spatialFilter=nearby(48.8569297790527342.3412001132965091000)&$filter=Adresstyp%20Eq%201&$top=1000&$format=json&key=AgC167Ojch2BCIEvqkvyrhl-yLiZLv6nCK_p0K1wyilYx4lcOnTjm6ud60JnqQAa,Lidl_FR_3242,COMPIEGNE,60200,,lun-sam: 08:30-19:30,,FR,1,1,8,bake,,17/02/2015 18:29,2.78726,TRUE
Lidl,467,FR,191,14001,49.36935,Lidl_FR_467_14001,,6,Bd de Tour de Ville,https://spatial.virtualearth.net/REST/v1/data/717c7792c09a4aa4a53bb789c6bb94ee/Filialdaten-FR/Filialdaten-FR?spatialFilter=nearby(48.8569297790527342.3412001132965091000)&$filter=Adresstyp%20Eq%201&$top=1000&$format=json&key=AgC167Ojch2BCIEvqkvyrhl-yLiZLv6nCK_p0K1wyilYx4lcOnTjm6ud60JnqQAa,Lidl_FR_467,SOISSONS,2200,,lun-sam 8h30-19h30,,FR,1,1,8,,,17/02/2015 18:29,3.32446,TRUE
Lidl,694,FR,214,14001,49.43912,Lidl_FR_694_14001,,11,93 Route de Darnétal,https://spatial.virtualearth.net/REST/v1/data/717c7792c09a4aa4a53bb789c6bb94ee/Filialdaten-FR/Filialdaten-FR?spatialFilter=nearby(48.8569297790527342.3412001132965091000)&$filter=Adresstyp%20Eq%201&$top=1000&$format=json&key=AgC167Ojch2BCIEvqkvyrhl-yLiZLv6nCK_p0K1wyilYx4lcOnTjm6ud60JnqQAa,Lidl_FR_694,ROUEN,76000,,lun-ven : 08:30 - 19:30 sam : 08:30 - 19:00,,FR,1,1,8,bake,,17/02/2015 18:29,1.12812,TRUE
Lidl,2308,FR,215,14001,47.93013,Lidl_FR_2308_14001,,18,192-198 route Nationale 157,https://spatial.virtualearth.net/REST/v1/data/717c7792c09a4aa4a53bb789c6bb94ee/Filialdaten-FR/Filialdaten-FR?spatialFilter=nearby(48.8569297790527342.3412001132965091000)&$filter=Adresstyp%20Eq%201&$top=1000&$format=json&key=AgC167Ojch2BCIEvqkvyrhl-yLiZLv6nCK_p0K1wyilYx4lcOnTjm6ud60JnqQAa,Lidl_FR_2308,INGRE,45140,,lun-sam 8h30-19h30,,FR,1,1,8,bake,,17/02/2015 18:29,1.8372,TRUE
Lidl,1019,FR,216,14001,47.90394,Lidl_FR_1019_14001,,18,155-157 Rue du Faubourg de Bourgogne,https://spatial.virtualearth.net/REST/v1/data/717c7792c09a4aa4a53bb789c6bb94ee/Filialdaten-FR/Filialdaten-FR?spatialFilter=nearby(48.8569297790527342.3412001132965091000)&$filter=Adresstyp%20Eq%201&$top=1000&$format=json&key=AgC167Ojch2BCIEvqkvyrhl-yLiZLv6nCK_p0K1wyilYx4lcOnTjm6ud60JnqQAa,Lidl_FR_1019,SAINT JEAN DE BRAYE,45800,,lun-sam 8h30-19h30,,FR,1,1,8,,,17/02/2015 18:29,1.93429,TRUE
Lidl,3053,FR,228,14001,49.44705,Lidl_FR_3053_14001,,11,Ancienne route de Duclaire,https://spatial.virtualearth.net/REST/v1/data/717c7792c09a4aa4a53bb789c6bb94ee/Filialdaten-FR/Filialdaten-FR?spatialFilter=nearby(48.8569297790527342.3412001132965091000)&$filter=Adresstyp%20Eq%201&$top=1000&$format=json&key=AgC167Ojch2BCIEvqkvyrhl-yLiZLv6nCK_p0K1wyilYx4lcOnTjm6ud60JnqQAa,Lidl_FR_3053,CANTELEU,76380,,lun-vend : 08:30 - 19:30 sam : 08:30 - 19:00,,FR,1,,8,bake,,17/02/2015 18:29,1.02573,TRUE
Lidl,1554,FR,229,14001,49.902,Lidl_FR_1554_14001,,25,114 rue Thuillier Delambre,https://spatial.virtualearth.net/REST/v1/data/717c7792c09a4aa4a53bb789c6bb94ee/Filialdaten-FR/Filialdaten-FR?spatialFilter=nearby(48.8569297790527342.3412001132965091000)&$filter=Adresstyp%20Eq%201&$top=1000&$format=json&key=AgC167Ojch2BCIEvqkvyrhl-yLiZLv6nCK_p0K1wyilYx4lcOnTjm6ud60JnqQAa,Lidl_FR_1554,RIVERY,80136,,lun-ven 8h30-19h30 /  sam 8h30-19h,,FR,1,1,8,,,17/02/2015 18:29,2.32624,TRUE
Lidl,1451,FR,231,14001,49.66187,Lidl_FR_1451_14001,,25,Z.A. du Verly,https://spatial.virtualearth.net/REST/v1/data/717c7792c09a4aa4a53bb789c6bb94ee/Filialdaten-FR/Filialdaten-FR?spatialFilter=nearby(48.8569297790527342.3412001132965091000)&$filter=Adresstyp%20Eq%201&$top=1000&$format=json&key=AgC167Ojch2BCIEvqkvyrhl-yLiZLv6nCK_p0K1wyilYx4lcOnTjm6ud60JnqQAa,Lidl_FR_1451,LA FERE,2800,,lun-ven 8h30-19h30 /  sam 8h30-19h,,FR,1,1,8,,,17/02/2015 18:29,3.37726,TRUE
Lidl,3107,FR,247,14001,49.53594,Lidl_FR_3107_14001,,11,C.C. Le Mesnil Roux - Le Hamelet,https://spatial.virtualearth.net/REST/v1/data/717c7792c09a4aa4a53bb789c6bb94ee/Filialdaten-FR/Filialdaten-FR?spatialFilter=nearby(48.8569297790527342.3412001132965091000)&$filter=Adresstyp%20Eq%201&$top=1000&$format=json&key=AgC167Ojch2BCIEvqkvyrhl-yLiZLv6nCK_p0K1wyilYx4lcOnTjm6ud60JnqQAa,Lidl_FR_3107,BARENTIN,76360,,lun-ven : 08:30 - 19:30 sam : 08:30 - 19:00,,FR,1,1,8,bake,,17/02/2015 18:29,0.96107,TRUE
Lidl,1060,FR,248,14001,48.32702,Lidl_FR_1060_14001,,18,Avenue de Paris,https://spatial.virtualearth.net/REST/v1/data/717c7792c09a4aa4a53bb789c6bb94ee/Filialdaten-FR/Filialdaten-FR?spatialFilter=nearby(48.8569297790527342.3412001132965091000)&$filter=Adresstyp%20Eq%201&$top=1000&$format=json&key=AgC167Ojch2BCIEvqkvyrhl-yLiZLv6nCK_p0K1wyilYx4lcOnTjm6ud60JnqQAa,Lidl_FR_1060,MARGON,28400,,lun-ven 8h30-19h30 sam 8h30-19h,,FR,1,1,8,,,17/02/2015 18:29,0.8265,TRUE
Lidl,492,FR,249,14001,49.99127,Lidl_FR_492_14001,,25,CD 329,https://spatial.virtualearth.net/REST/v1/data/717c7792c09a4aa4a53bb789c6bb94ee/Filialdaten-FR/Filialdaten-FR?spatialFilter=nearby(48.8569297790527342.3412001132965091000)&$filter=Adresstyp%20Eq%201&$top=1000&$format=json&key=AgC167Ojch2BCIEvqkvyrhl-yLiZLv6nCK_p0K1wyilYx4lcOnTjm6ud60JnqQAa,Lidl_FR_492,MEAULTE,80810,,lun-ven 8h30-19h30 /  sam 8h30-19h,,FR,1,1,8,,,17/02/2015 18:29,2.65857,TRUE
Lidl,1972,FR,244,14001,49.35872,Lidl_FR_1972_14001,,11,Rue St. Exupéry,https://spatial.virtualearth.net/REST/v1/data/717c7792c09a4aa4a53bb789c6bb94ee/Filialdaten-FR/Filialdaten-FR?spatialFilter=nearby(48.8569297790527342.3412001132965091000)&$filter=Adresstyp%20Eq%201&$top=1000&$format=json&key=AgC167Ojch2BCIEvqkvyrhl-yLiZLv6nCK_p0K1wyilYx4lcOnTjm6ud60JnqQAa,Lidl_FR_1972,BOURG ACHARD,27310,,lun-ven : 08:30 - 19:30 sam : 08:30 - 19:00,,FR,1,1,8,bake,,17/02/2015 18:29,0.81559,TRUE
Lidl,2388,FR,246,14001,49.912,Lidl_FR_2388_14001,,25,57/59 route de Paris -  Rue de la filature,https://spatial.virtualearth.net/REST/v1/data/717c7792c09a4aa4a53bb789c6bb94ee/Filialdaten-FR/Filialdaten-FR?spatialFilter=nearby(48.8569297790527342.3412001132965091000)&$filter=Adresstyp%20Eq%201&$top=1000&$format=json&key=AgC167Ojch2BCIEvqkvyrhl-yLiZLv6nCK_p0K1wyilYx4lcOnTjm6ud60JnqQAa,Lidl_FR_2388,PERONNE,80200,,lun-ven 8h30-19h30 /  sam 8h30-19h,,FR,1,1,8,bake,,17/02/2015 18:29,2.93378,TRUE
Lidl,2449,FR,223,14001,47.88652,Lidl_FR_2449_14001,,18,26 avenue de St Mesmin,https://spatial.virtualearth.net/REST/v1/data/717c7792c09a4aa4a53bb789c6bb94ee/Filialdaten-FR/Filialdaten-FR?spatialFilter=nearby(48.8569297790527342.3412001132965091000)&$filter=Adresstyp%20Eq%201&$top=1000&$format=json&key=AgC167Ojch2BCIEvqkvyrhl-yLiZLv6nCK_p0K1wyilYx4lcOnTjm6ud60JnqQAa,Lidl_FR_2449,ORLEANS,45100,,lun-sam 8h30-19h30,,FR,1,1,8,bake,,17/02/2015 18:29,1.88658,TRUE
Lidl,689,FR,224,14001,49.41856,Lidl_FR_689_14001,,11,C. Cial du Bois Cany - Rue  Lavoisier,https://spatial.virtualearth.net/REST/v1/data/717c7792c09a4aa4a53bb789c6bb94ee/Filialdaten-FR/Filialdaten-FR?spatialFilter=nearby(48.8569297790527342.3412001132965091000)&$filter=Adresstyp%20Eq%201&$top=1000&$format=json&key=AgC167Ojch2BCIEvqkvyrhl-yLiZLv6nCK_p0K1wyilYx4lcOnTjm6ud60JnqQAa,Lidl_FR_689,GRAND QUEVILLY,76120,,lun-ven : 08:30 - 19:30 sam : 08:30 - 19:00,,FR,1,1,8,bake,,17/02/2015 18:29,1.04497,TRUE
Lidl,609,FR,220,14001,49.41462,Lidl_FR_609_14001,,11,Boulevard Stanislas Girardin,https://spatial.virtualearth.net/REST/v1/data/717c7792c09a4aa4a53bb789c6bb94ee/Filialdaten-FR/Filialdaten-FR?spatialFilter=nearby(48.8569297790527342.3412001132965091000)&$filter=Adresstyp%20Eq%201&$top=1000&$format=json&key=AgC167Ojch2BCIEvqkvyrhl-yLiZLv6nCK_p0K1wyilYx4lcOnTjm6ud60JnqQAa,Lidl_FR_609,LE PETIT QUEVILLY,76140,,lun-ven : 08:30 - 19:30 sam : 08:30 - 19:00,,FR,1,1,8,,,17/02/2015 18:29,1.06375,TRUE
Lidl,1273,FR,221,14001,49.43496,Lidl_FR_1273_14001,,11,16 Rue Malherbe,https://spatial.virtualearth.net/REST/v1/data/717c7792c09a4aa4a53bb789c6bb94ee/Filialdaten-FR/Filialdaten-FR?spatialFilter=nearby(48.8569297790527342.3412001132965091000)&$filter=Adresstyp%20Eq%201&$top=1000&$format=json&key=AgC167Ojch2BCIEvqkvyrhl-yLiZLv6nCK_p0K1wyilYx4lcOnTjm6ud60JnqQAa,Lidl_FR_1273,ROUEN,76100,,lun-ven : 08:30 - 19:30 sam : 08:30 - 19:00,,FR,1,1,8,,,17/02/2015 18:29,1.08406,TRUE
Lidl,1512,FR,238,14001,49.3568,Lidl_FR_1512_14001,,11,Lieudit Le Village RN 175,https://spatial.virtualearth.net/REST/v1/data/717c7792c09a4aa4a53bb789c6bb94ee/Filialdaten-FR/Filialdaten-FR?spatialFilter=nearby(48.8569297790527342.3412001132965091000)&$filter=Adresstyp%20Eq%201&$top=1000&$format=json&key=AgC167Ojch2BCIEvqkvyrhl-yLiZLv6nCK_p0K1wyilYx4lcOnTjm6ud60JnqQAa,Lidl_FR_1512,ST OUEN DE THOUBERVILLE,27310,,lun-ven : 08:30 - 19:30 sam : 08:30 - 19:00,,FR,1,1,8,,,17/02/2015 18:29,0.8893,TRUE
Lidl,2317,FR,236,14001,47.86138,Lidl_FR_2317_14001,,18,11 Route Nationale,https://spatial.virtualearth.net/REST/v1/data/717c7792c09a4aa4a53bb789c6bb94ee/Filialdaten-FR/Filialdaten-FR?spatialFilter=nearby(48.8569297790527342.3412001132965091000)&$filter=Adresstyp%20Eq%201&$top=1000&$format=json&key=AgC167Ojch2BCIEvqkvyrhl-yLiZLv6nCK_p0K1wyilYx4lcOnTjm6ud60JnqQAa,Lidl_FR_2317,SAINT-AY,45130,,,,FR,1,1,8,,,17/02/2015 18:29,1.75956,TRUE
